distCode,spatialId,finalId,distName,spatialState,spatialDistrict,nss2001State,nss2001District,nss2010State,nss2010District,Note,state,district,long,lat,gqDistance,nsewDistance,gqStraightDistance,nsewStraightDistance,districtType
102,3_1_8_0,3_1_8_0,Baramula,Jammu and Kashmir,Baramula,Jammu  & Kashmir,Baramula,Jammu  & Kashmir,Baramula,Bandipore district split from Baramula,Jammu and Kashmir,Baramula,74.29498717,34.15477531,672.1888186560438,315.4644255940169,676.2799431782519,347.9423714149752,not nodal
103,3_1_10_0,3_1_10_0,Srinagar,Jammu and Kashmir,Srinagar,Jammu  & Kashmir,Srinagar,Jammu  & Kashmir,Srinagar,Ganderbal district split from Srinagar,Jammu and Kashmir,Srinagar,74.89700645,34.12234317,647.3415241399172,294.0384559256837,651.6024030549037,329.4274790007537,not nodal
105,3_1_12_0,3_1_12_0,Pulwama,Jammu and Kashmir,Pulwama,Jammu  & Kashmir,Pulwama,Jammu  & Kashmir,Pulwama,Shupiyan district split from Pulwama,Jammu and Kashmir,Pulwama,75.00767506,33.94024637,624.7856662661691,271.9612219524242,629.0549355046329,307.6382234741166,not nodal
112,3_1_6_0,3_1_6_0,Rajauri,Jammu and Kashmir,Rajouri,Jammu  & Kashmir,Rajauri,Jammu  & Kashmir,Rajauri,NA,Jammu and Kashmir,Rajouri,74.3502605,33.26737082,581.7613404181891,225.8071909798533,585.6907274011548,255.19475015306847,not nodal
113,3_1_21_0,3_1_21_0,Jammu,Jammu and Kashmir,Jammu,Jammu  & Kashmir,Jammu,Jammu  & Kashmir,Jammu,Samba district formed from parts of Jammu and Kathua,Jammu and Kashmir,Jammu,74.74232553,32.80321598,518.9266220248924,162.58592819813634,522.8938856771028,192.81673706827158,not nodal
201,3_2_23_0,3_2_23_0,Chamba,Himachal Pradesh,Chamba,Himachal Pradesh,Chamba,Himachal Pradesh,Chamba,NA,Himachal Pradesh,Chamba,76.3474488,32.67523291,455.1073087851984,141.3654470601169,459.89093815705644,178.59232551466428,not nodal
202,3_2_24_0,3_2_24_0,Kangra,Himachal Pradesh,Kangra,Himachal Pradesh,Kangra,Himachal Pradesh,Kangra,NA,Himachal Pradesh,Kangra,76.31507448,32.10897046,394.08934309081513,88.73033576932596,398.73973820884754,122.39300860587055,not nodal
204,3_2_26_0,3_2_26_0,Kullu,Himachal Pradesh,Kullu,Himachal Pradesh,Kullu,Himachal Pradesh,Kullu,NA,Himachal Pradesh,Kullu,77.39532767,31.90503842,361.73656550554193,170.70895317180313,367.1783794879014,189.3871697533338,not nodal
205,3_2_27_0,3_2_27_0,Mandi,Himachal Pradesh,Mandi,Himachal Pradesh,Mandi,Himachal Pradesh,Mandi,NA,Himachal Pradesh,Mandi,76.99094888,31.6380413,332.49881340124983,123.62151409986951,337.65083184157254,141.58115534329053,not nodal
206,3_2_28_0,3_2_28_0,Hamirpur,Himachal Pradesh,Hamirpur,Himachal Pradesh,Hamirpur,Himachal Pradesh,Hamirpur,NA,Himachal Pradesh,Hamirpur,76.52569064,31.66809789,341.87525036667773,84.91846596301497,346.6147103870258,104.51723427182566,not nodal
208,3_2_30_0,3_2_30_0,Bilaspur,Himachal Pradesh,Bilaspur,Himachal Pradesh,Bilaspur,Himachal Pradesh,Bilaspur,NA,Himachal Pradesh,Bilaspur,76.66725599,31.37149738,306.89590986689274,85.37827687487419,311.71090385995006,100.41697428226242,not nodal
209,3_2_31_0,3_2_31_0,Solan,Himachal Pradesh,Solan,Himachal Pradesh,Solan,Himachal Pradesh,Solan,NA,Himachal Pradesh,Solan,76.90727493,31.04441907,267.4565034369681,70.4222961866102,272.4693101560814,103.13023497097477,not nodal
210,3_2_32_0,3_2_32_0,Sirmaur,Himachal Pradesh,Sirmaur,Himachal Pradesh,Sirmaur,Himachal Pradesh,Sirmaur,NA,Himachal Pradesh,Sirmaur,77.43178537,30.66671987,224.3748863860507,68.18364012169295,229.91366391415974,127.35850409579162,not nodal
211,3_2_33_0,3_2_33_0,Shimla,Himachal Pradesh,Shimla,Himachal Pradesh,Shimla,Himachal Pradesh,Shimla,NA,Himachal Pradesh,Shimla,77.63237476,31.19935206,285.4516579561457,122.48758894787831,291.0830275678011,172.07633767401379,not nodal
301,3_3_35_0,3_3_35_0,Gurdaspur,Punjab,Gurdaspur,Punjab,Gurdaspur,Punjab,Gurdaspur,NA,Punjab,Gurdaspur,75.37973885,32.01698723,413.80953397447865,56.93938755558961,417.85560785031726,90.77470497788269,not nodal
302,3_3_49_0,3_3_49_0,Amritsar,Punjab,Amritsar,Punjab,Amritsar,Punjab,Amritsar,Tarn Taran district split from Amritsar,Punjab,Amritsar,74.89540535,31.70461684,406.34019221032315,72.4697188910771,410.00450789407387,83.36240648785552,not nodal
303,3_3_36_0,3_3_36_0,Kapurthala,Punjab,Kapurthala,Punjab,Kapurthala,Punjab,Kapurthala,NA,Punjab,Kapurthala,75.39882238,31.35402405,347.8220388543327,24.043257966362013,351.6390519623847,21.750457157131763,nodal
304,3_3_37_0,3_3_37_0,Jalandhar,Punjab,Jalandhar,Punjab,Jalandhar,Punjab,Jalandhar,NA,Punjab,Jalandhar,75.56097834,31.21628274,326.8172638650137,10.67470072626125,330.681486565238,0,nodal
305,3_3_38_0,3_3_38_0,Hoshiarpur,Punjab,Hoshiarpur,Punjab,Hoshiarpur,Punjab,Hoshiarpur,NA,Punjab,Hoshiarpur,75.85372961,31.62456536,355.7245982049114,21.6934460265957,359.9145782328647,53.283092460497805,not nodal
306,3_3_39_0,3_3_39_0,Nawanshahr,Punjab,Shahid Bhagat Singh Nagar,Punjab,Nawanshahr,Punjab,Nawanshahr,NA,Punjab,Shahid Bhagat Singh Nagar,76.15001399,31.10833722,291.944196461514,33.9284612420497,296.1711927889909,43.22932603828891,not nodal
307,3_3_51_0,3_3_48_0,Rupnagar,Punjab,Rupnagar,Punjab,Rupnagar,Punjab,Rupnagar,Mohali district formed from parts of Patiala and Rupnagar,Punjab,Rupnagar,76.48131213,31.06057474,277.074510770159,48.84986074632458,281.58252700446127,68.34364849525046,not nodal
308,3_3_40_0,3_3_40_0,Fatehgarh,Punjab,Fatehgarh Sahib,Punjab,Fatehgarh Sahib,Punjab,Fatehgarh Sahib,NA,Punjab,Fatehgarh Sahib,76.37354202,30.64082406,235.71405544302237,4.388729492005801,239.95647144212396,36.9839133427925,not nodal
309,3_3_41_0,3_3_41_0,Ludhiana,Punjab,Ludhiana,Punjab,Ludhiana,Punjab,Ludhiana,NA,Punjab,Ludhiana,75.82217382,30.80913877,275.1001691827312,9.457012606314674,278.9600052233234,0.22490809552687197,not nodal
310,3_3_42_0,3_3_42_0,Moga,Punjab,Moga,Punjab,Moga,Punjab,Moga,NA,Punjab,Moga,75.1667055,30.76634578,307.37270187458404,64.823182681465,310.6571339329023,57.40044360045461,not nodal
311,3_3_43_0,3_3_43_0,Firozpur,Punjab,Firozpur,Punjab,Firozpur,Punjab,Firozpur,NA,Punjab,Firozpur,74.40943651,30.5621857,344.6365452152646,140.73909255651319,347.1597308678299,131.62501969168582,not nodal
316,3_3_53_0,3_3_53_0,Sangrur,Punjab,Sangrur,Punjab,Sangrur,Punjab,Sangrur,Barnala district split from Sangrur,Punjab,Sangrur,75.86217367,30.2166772,217.82398063296475,62.174167816409074,221.28572454365496,28.915467699772627,not nodal
317,3_3_48_0,3_3_48_0,Patiala,Punjab,Patiala,Punjab,Patiala,Punjab,Patiala,Mohali district formed from parts of Patiala and Rupnagar,Punjab,Patiala,76.34444124,30.27666557,199.38503118860132,30.25751691328445,203.43779268263665,15.061869860487583,not nodal
404,3_4_55_0,3_4_55_0,Chandigarh,Chandigarh,Chandigarh,Chandigarh,Chandigarh,Chandigarh,Chandigarh,NA,Chandigarh,Chandigarh,76.78375411,30.72977771,234.63420444006567,33.63748604470837,239.4271881570075,76.15015292670844,not nodal
505,3_5_60_0,3_5_60_0,Dehradun,Uttarakhand,Dehradun,Uttaranchal,Dehradun,Uttarakhand,Dehradun (P),NA,Uttarakhand,Dehradun,77.96459626,30.46952453,213.67096853872857,107.40878716224447,219.55233636432177,162.10269786608083,not nodal
508,3_5_63_0,3_5_63_0,Bageshwar,Uttarakhand,Bageshwar,Uttaranchal,Bageshwar,Uttarakhand,Bageshwar,NA,Uttarakhand,Bageshwar,79.85706904,29.99617688,294.967554878184,278.8813357517044,259.6974875577043,299.23626025852457,not nodal
509,3_5_64_0,3_5_64_0,Almora,Uttarakhand,Almora,Uttaranchal,Almora,Uttarakhand,Almora,NA,Uttarakhand,Almora,79.50174645,29.68925975,247.9539247501259,243.28571421368142,213.06322620550685,253.25024946358036,not nodal
511,3_5_66_0,3_5_66_0,Nainital,Uttarakhand,Nainital,Uttaranchal,Nainital,Uttarakhand,Nainital (P),NA,Uttarakhand,Nainital,79.45260183,29.3193044,225.02885917020376,228.18816909137232,174.94786714388184,230.82302973875042,not nodal
512,3_5_67_0,3_5_67_0,Udham Singh Nagar,Uttarakhand,Udham Singh Nagar,Uttaranchal,Udhamsingh Singh Nagar,Uttarakhand,U. Singh Nagar,NA,Uttarakhand,Udham Singh Nagar,79.4718715,29.04121523,216.71889866833752,221.79626217103933,149.02595488712606,218.880781240244,not nodal
513,3_5_68_0,3_5_68_0,Hardwar,Uttarakhand,Hardwar,Uttaranchal,Hardwar,Uttarakhand,Hardwar,NA,Uttarakhand,Hardwar,78.00503209,29.88084465,155.33785771935803,100.03384712424763,161.25051521974268,135.0053790282155,not nodal
601,3_6_69_0,3_6_69_0,Panchkula,Haryana,Panchkula,Haryana,Panchkula,Haryana,Panchkula,NA,Haryana,Panchkula,76.97710571,30.68320273,226.74563380421822,38.96117305913898,231.78688093667492,89.94135278065177,not nodal
602,3_6_70_0,3_6_70_0,Ambala,Haryana,Ambala,Haryana,Ambala,Haryana,Ambala,NA,Haryana,Ambala,76.9435869,30.32228894,187.32630656233718,9.032086038192551,192.24322782825297,68.07514324538897,not nodal
603,3_6_71_0,3_6_71_0,Yamunanagar,Haryana,Yamunanagar,Haryana,Yamunanagar,Haryana,Yamunanagar,NA,Haryana,Yamunanagar,77.30543699,30.22839998,174.898573719744,40.35357031423984,180.3420214255239,93.72553105758448,not nodal
604,3_6_72_0,3_6_72_0,Kurukshetra,Haryana,Kurukshetra,Haryana,Kurukshetra,Haryana,Kurukshetra,NA,Haryana,Kurukshetra,76.78852385,30.03428333,159.11555118676083,9.989918293789671,163.6013365564142,39.70022174801439,not nodal
605,3_6_73_0,3_6_73_0,Kaithal,Haryana,Kaithal,Haryana,Kaithal,Haryana,Kaithal,NA,Haryana,Kaithal,76.41534883,29.81659576,150.93416114817146,49.00626874905902,154.71905175405576,3.581032824297806,not nodal
606,3_6_74_0,3_6_74_0,Karnal,Haryana,Karnal,Haryana,Karnal,Haryana,Karnal,NA,Haryana,Karnal,76.88901787,29.68548638,119.12015718838425,10.247543072137727,123.58115393623947,29.715048463357164,not nodal
608,3_6_76_0,3_6_76_0,Sonipat,Haryana,Sonipat,Haryana,Sonipat,Haryana,Sonipat,NA,Haryana,Sonipat,76.8775717,29.0516812,55.12680090493993,19.929764365044598,58.6734150372585,4.946848587359205,not nodal
609,3_6_77_0,3_6_77_0,Jind,Haryana,Jind,Haryana,Jind,Haryana,Jind,NA,Haryana,Jind,76.31770031,29.4356349,123.21062239280937,64.35363679984872,126.20378389049705,32.33191021233618,not nodal
610,3_6_78_0,3_6_78_0,Fatehabad,Haryana,Fatehabad,Haryana,Fatehabad,Haryana,Fatehabad,NA,Haryana,Fatehabad,75.58350211,29.57335221,187.52063014327751,133.6797034683926,190.85132446069608,87.41220651820097,not nodal
612,3_6_80_0,3_6_80_0,Hissar,Haryana,Hisar,Haryana,Hisar,Haryana,Hisar,NA,Haryana,Hisar,75.82596703,29.21190369,142.66657960592656,113.65461655732763,150.29928030496256,86.36940261643207,not nodal
613,3_6_81_0,3_6_81_0,Bhiwani,Haryana,Bhiwani,Haryana,Bhiwani,Haryana,Bhiwani,NA,Haryana,Bhiwani,75.9679877,28.71695754,92.95498583908186,114.34356176137344,115.82133585475263,100.97039747686479,not nodal
617,3_6_85_0,3_6_85_0,Rewari,Haryana,Rewari,Haryana,Rewari,Haryana,Rewari,NA,Haryana,Rewari,76.54405824,28.23554876,18.52501313537306,81.46247290520897,43.100042027068916,76.84249477223655,not nodal
618,3_6_86_0,3_6_86_0,Gurgaon,Haryana,Gurgaon,Haryana,Gurgaon,Haryana,Gurgaon,Mewat district split from Gurgaon,Haryana,Gurgaon,76.94312295,28.36952746,0.8296986487194248,41.308147859703034,13.049128067280492,35.266500179129316,nodal
619,3_6_88_0,3_6_88_0,Faridabad,Haryana,Faridabad,Haryana,Faridabad,Haryana,Faridabad,Palwal district split from Faridabad,Haryana,Faridabad,77.34195549,28.35415504,0.01030443326217894,31.768972342640335,18.712442005241897,1.205224413092931,nodal
701,3_7_90_0,3_7_90_0,North West,NCT Of Delhi,North West,Delhi,North West,Delhi,North West,NA,NCT Of Delhi,North West,77.08441412,28.77053879,18.129089417630702,6.215507346355848,21.450956884108948,2.0966189862205766,nodal
702,3_7_91_0,3_7_91_0,North,NCT Of Delhi,North,Delhi,North,Delhi,North,NA,NCT Of Delhi,North,77.20905726,28.71135344,6.318544624371173,0.8841151512649682,11.21420146435321,5.506636686087206,nodal
703,3_7_92_0,3_7_92_0,North East,NCT Of Delhi,North East,Delhi,North East,Delhi,North East,NA,NCT Of Delhi,North East,77.26712577,28.70908354,6.5248064374810895,5.371046320332004,12.434702351035392,10.3916099461415,nodal
704,3_7_93_0,3_7_93_0,East,NCT Of Delhi,East,Delhi,East,Delhi,East,NA,NCT Of Delhi,East,77.29506157,28.63367581,4.644252783036919,4.744386802006553,6.357543840570824,8.826364337674821,nodal
707,3_7_96_0,3_7_96_0,West,NCT Of Delhi,West,Delhi,West,Delhi,West,NA,NCT Of Delhi,West,77.06034903,28.6563852,13.101968586482514,13.69142561021251,15.167445793604447,10.222877506732717,nodal
708,3_7_97_0,3_7_97_0,South West,NCT Of Delhi,South West,Delhi,South West,Delhi,South West,NA,NCT Of Delhi,South West,77.0129808,28.57466009,11.10865262409382,23.30152323184924,15.797430066181125,18.644504056979834,nodal
709,3_7_98_0,3_7_98_0,South,NCT Of Delhi,South,Delhi,South,Delhi,South,NA,NCT Of Delhi,South,77.22296938,28.50567809,8.611860600276895,13.719574907969097,6.1143790091727865,3.9353714228153414,nodal
710,NA,NA,Delhi Municipal Corp,NA,NA,NA,NA,NA,NA,NA,NA,NA,NA,NA,NA,NA,NA,NA,NA
711,NA,NA,New Delhi Municipal C,NA,NA,NA,NA,NA,NA,NA,NA,NA,NA,NA,NA,NA,NA,NA,NA
712,NA,NA,Kirari Suleman Nagar,NA,NA,NA,NA,NA,NA,NA,NA,NA,NA,NA,NA,NA,NA,NA,NA
803,3_8_101_0,3_8_101_0,Bikaner,Rajasthan,Bikaner,Rajasthan,Bikaner,Rajasthan,Bikaner,NA,Rajasthan,Bikaner,73.18612448,28.17667302,237.74783171814263,378.5367609708995,344.91260833879477,367.89239983377155,not nodal
804,3_8_102_0,3_8_102_0,Churu,Rajasthan,Churu,Rajasthan,Churu,Rajasthan,Churu,NA,Rajasthan,Churu,74.70882919,28.34846477,159.13745619980247,243.13715834427396,213.68570418410687,228.90023703554996,not nodal
805,3_8_103_0,3_8_103_0,Jhunjhunu,Rajasthan,Jhunjhunun,Rajasthan,Jhunjhunun,Rajasthan,Jhunjhunun,NA,Rajasthan,Jhunjhunun,75.55059394,28.09428671,75.2499520119736,173.4633529155006,126.70402078146279,170.5888449754936,not nodal
806,3_8_104_0,3_8_104_0,Alwar,Rajasthan,Alwar,Rajasthan,Alwar,Rajasthan,Alwar,NA,Rajasthan,Alwar,76.59997935,27.59347301,39.96933649702149,131.43867065777567,9.914265479127849,105.0642349455754,not nodal
807,3_8_105_0,3_8_105_0,Bharatpur,Rajasthan,Bharatpur,Rajasthan,Bharatpur,Rajasthan,Bharatpur,NA,Rajasthan,Bharatpur,77.27727491,27.24768677,39.96154982500708,72.89280604294048,67.1106951378042,63.03901480935273,not nodal
808,3_8_106_0,3_8_106_0,Dhaulpur,Rajasthan,Dhaulpur,Rajasthan,Dhaulpur,Rajasthan,Dhaulpur,NA,Rajasthan,Dhaulpur,77.7091279,26.68314306,62.63594056230648,18.84655131983941,131.78202561713195,53.20973352522598,not nodal
809,3_8_107_0,3_8_107_0,Karauli,Rajasthan,Karauli,Rajasthan,Karauli,Rajasthan,Karauli,NA,Rajasthan,Karauli,76.96012672,26.51844073,115.38361648445972,94.16211935207474,70.5039613002484,128.28677836002865,not nodal
810,3_8_108_0,3_8_108_0,Sawai Madhopur,Rajasthan,Sawai Madhopur,Rajasthan,Sawai Madhopur,Rajasthan,Sawai Madhopur,NA,Rajasthan,Sawai Madhopur,76.45615523,26.21416021,100.1646233291741,122.98415950421361,37.523767992712195,170.13893097384872,not nodal
811,3_8_109_0,3_8_109_0,Dausa,Rajasthan,Dausa,Rajasthan,Dausa,Rajasthan,Dausa,NA,Rajasthan,Dausa,76.52182951,26.86360227,62.88812355494464,137.89046468286278,15.035990358552176,149.46420471113498,not nodal
812,3_8_110_0,3_8_110_0,Jaipur,Rajasthan,Jaipur,Rajasthan,Jaipur,Rajasthan,Jaipur,NA,Rajasthan,Jaipur,75.72168543,26.97887126,10.002955961892285,199.0428537080931,63.296368741508054,213.86263040650638,not nodal
813,3_8_111_0,3_8_111_0,Sikar,Rajasthan,Sikar,Rajasthan,Sikar,Rajasthan,Sikar,NA,Rajasthan,Sikar,75.28599941,27.63393085,71.20463025046877,221.60667672997909,131.09906363742593,217.52554680038796,not nodal
814,3_8_112_0,3_8_112_0,Nagaur,Rajasthan,Nagaur,Rajasthan,Nagaur,Rajasthan,Nagaur,NA,Rajasthan,Nagaur,74.17789759,27.06490917,80.02753590828456,228.41110741148643,208.39654892410724,344.0342494402822,not nodal
815,3_8_113_0,3_8_113_0,Jodhpur,Rajasthan,Jodhpur,Rajasthan,Jodhpur,Rajasthan,Jodhpur,NA,Rajasthan,Jodhpur,72.78869275,26.74964221,163.02457557094212,220.71301980743672,323.34921263974735,376.73368655343455,not nodal
818,3_8_116_0,3_8_116_0,Jalor,Rajasthan,Jalor,Rajasthan,Jalor,Rajasthan,Jalor,NA,Rajasthan,Jalor,72.21744764,25.10176357,158.2923313816363,86.49797466374967,309.92027324285675,235.56796402189693,not nodal
820,3_8_118_0,3_8_118_0,Pali,Rajasthan,Pali,Rajasthan,Pali,Rajasthan,Pali,NA,Rajasthan,Pali,73.5218748,25.70812128,39.30208805554345,105.27223888637985,212.75115282906427,240.4175352968846,not nodal
821,3_8_119_0,3_8_119_0,Ajmer,Rajasthan,Ajmer,Rajasthan,Ajmer,Rajasthan,Ajmer,NA,Rajasthan,Ajmer,74.77439987,26.23423736,24.205495220435605,125.47388878881543,118.60588721922917,240.95890066507087,not nodal
824,3_8_122_0,3_8_122_0,Bhilwara,Rajasthan,Bhilwara,Rajasthan,Bhilwara,Rajasthan,Bhilwara,NA,Rajasthan,Bhilwara,74.72716569,25.48183616,70.60988492347461,43.88929581060541,91.09720051793593,166.76611503720585,not nodal
825,3_8_123_0,3_8_123_0,Rajsamand,Rajasthan,Rajsamand,Rajasthan,Rajsamand,Rajasthan,Rajsamand,NA,Rajasthan,Rajsamand,73.89960245,25.23984676,6.383357884937954,62.92560366120595,158.08869844127824,177.110341006852,not nodal
826,3_8_130_0,3_8_125_0,Udaipur,Rajasthan,Udaipur,Rajasthan,Udaipur,Rajasthan,Udaipur,"Pratapgarh formed from parts of Banswara, Chittorgarh, and Udaipur",Rajasthan,Udaipur,73.70114088,24.430466,3.264930059977795,19.906873119249372,142.95911251687602,103.90493643746197,not nodal
829,3_8_126_0,3_8_125_0,Chittaurgarh,Rajasthan,Chittaurgarh,Rajasthan,Chittaurgarh,Rajasthan,Chittaurgarh,"Pratapgarh formed from parts of Banswara, Chittorgarh, and Udaipur",Rajasthan,Chittaurgarh,74.77590791,24.82244166,92.74655157019957,12.160494724861403,58.54103243388373,98.04108764945809,not nodal
830,3_8_127_0,3_8_127_0,Kota,Rajasthan,Kota,Rajasthan,Kota,Rajasthan,Kota,NA,Rajasthan,Kota,76.10290805,25.10225084,194.91065592433537,15.22723268377239,53.41487306447077,71.5251626962105,not nodal
831,3_8_128_0,3_8_128_0,Baran,Rajasthan,Baran,Rajasthan,Baran,Rajasthan,Baran,NA,Rajasthan,Baran,76.75043561,24.99829142,232.4674232150154,42.92906060622904,118.32185449807257,34.66701014189969,not nodal
832,3_8_129_0,3_8_129_0,Jhalawar,Rajasthan,Jhalawar,Rajasthan,Jhalawar,Rajasthan,Jhalawar,NA,Rajasthan,Jhalawar,76.19481947,24.34215456,245.8947227735021,96.8874641376079,95.18360942018589,9.325413849545377,not nodal
901,3_9_132_0,3_9_132_0,Saharanpur,Uttar Pradesh,Saharanpur,Uttar Pradesh,Saharanpur,Uttar Pradesh,Saharanpur,NA,Uttar Pradesh,Saharanpur,77.54968841,29.94419652,146.3788788246515,59.56494282155564,152.13530048345345,99.55187295471626,not nodal
902,3_9_133_0,3_9_133_0,Muzaffarnagar,Uttar Pradesh,Muzaffarnagar,Uttar Pradesh,Muzaffarnagar,Uttar Pradesh,Muzaffarnagar,NA,Uttar Pradesh,Muzaffarnagar,77.58624109,29.44306449,93.84487656385771,57.604041702024325,99.74814751740928,76.4260320128472,not nodal
903,3_9_134_0,3_9_134_0,Bijnor,Uttar Pradesh,Bijnor,Uttar Pradesh,Bijnor,Uttar Pradesh,Bijnor,NA,Uttar Pradesh,Bijnor,78.38163908,29.37845364,137.5405651014185,130.09661408336163,129.86428069371794,141.2011394752124,not nodal
904,3_9_135_0,3_9_135_0,Moradabad,Uttar Pradesh,Moradabad,Uttar Pradesh,Moradabad,Uttar Pradesh,Moradabad,NA,Uttar Pradesh,Moradabad,78.71498018,28.76112876,137.6981193052812,144.11169470964302,85.74215750214609,138.96611288625445,not nodal
905,3_9_136_0,3_9_136_0,Rampur,Uttar Pradesh,Rampur,Uttar Pradesh,Raopur,Uttar Pradesh,Rampur,NA,Uttar Pradesh,Rampur,79.11047001,28.80782569,176.56485980946758,183.02390056300473,109.15839326119433,175.84116840488264,not nodal
906,3_9_137_0,3_9_137_0,Jyotiva Phule Nagar,Uttar Pradesh,Jyotiba Phule Nagar,Uttar Pradesh,Jyotiba Phule Nagar,Uttar Pradesh,J. Phule Nagar,NA,Uttar Pradesh,Jyotiba Phule Nagar,78.33361344,28.80591027,102.92903562851146,107.92656531081637,71.95396245095127,107.90444611095964,not nodal
907,3_9_138_0,3_9_138_0,Meerut,Uttar Pradesh,Meerut,Uttar Pradesh,Meerut,Uttar Pradesh,Meerut,NA,Uttar Pradesh,Meerut,77.7825536,29.03654617,68.10721385337284,66.04000087248927,68.4614931530167,71.97921403205147,not nodal
909,3_9_140_0,3_9_140_0,Ghaziabad,Uttar Pradesh,Ghaziabad,Uttar Pradesh,Ghaziabad,Uttar Pradesh,Ghaziabad,NA,Uttar Pradesh,Ghaziabad,77.69930289,28.74378534,43.667391544385104,46.032901734009045,36.007984490086095,49.55084909054248,not nodal
910,3_9_141_0,3_9_141_0,Gautam Buddha Nagar,Uttar Pradesh,Gautam Buddha Nagar,Uttar Pradesh,Gautam Budh Nagar,Uttar Pradesh,G. Buddha Nagar,NA,Uttar Pradesh,Gautam Buddha Nagar,77.53794545,28.41405505,19.511299338708213,37.03685294735679,3.6165644769287266,18.941919718271645,nodal
913,3_9_144_0,3_9_144_0,Hathras,Uttar Pradesh,Mahamaya Nagar,Uttar Pradesh,Hathras,Uttar Pradesh,Hathras,NA,Uttar Pradesh,Mahamaya Nagar,78.15816483,27.58059757,38.031749082665385,47.288201964518855,55.23406150350947,31.69172762987974,not nodal
914,3_9_145_0,3_9_145_0,Mathura,Uttar Pradesh,Mathura,Uttar Pradesh,Mathura,Uttar Pradesh,Mathura,NA,Uttar Pradesh,Mathura,77.62778739,27.59990178,3.4776878168867023,60.32410819259487,78.80518016960077,14.195803547864456,not nodal
915,3_9_146_0,3_9_146_0,Agra,Uttar Pradesh,Agra,Uttar Pradesh,Agra,Uttar Pradesh,Agra,NA,Uttar Pradesh,Agra,78.07356894,27.03814779,18.05081190284419,7.532909185015651,112.14010879767598,2.916959542997848,not nodal
919,3_9_149_0,3_9_149_0,Budaun,Uttar Pradesh,Budaun,Uttar Pradesh,Budaun,Uttar Pradesh,Budaun,NA,Uttar Pradesh,Budaun,78.93338663,28.11204426,116.7519907121655,138.35061115198025,33.527362878259275,126.21137742082986,not nodal
920,3_9_150_0,3_9_150_0,Bareilly,Uttar Pradesh,Bareilly,Uttar Pradesh,Bareilly,Uttar Pradesh,Bareilly,NA,Uttar Pradesh,Bareilly,79.43221788,28.45193211,170.3565042644438,199.43019225997904,90.33621927416979,186.65457255017117,not nodal
923,3_9_153_0,3_9_153_0,Kheri,Uttar Pradesh,Kheri,Uttar Pradesh,Khiri,Uttar Pradesh,Kheri,NA,Uttar Pradesh,Kheri,80.66996117,28.11674152,188.85343268023183,282.45086421845974,118.57796340088343,279.7168576645952,not nodal
924,3_9_154_0,3_9_154_0,Sitapur,Uttar Pradesh,Sitapur,Uttar Pradesh,Sitapur,Uttar Pradesh,Sitapur,NA,Uttar Pradesh,Sitapur,80.85658904,27.51655762,129.78428069887514,284.0606263891087,70.39330358801392,267.76775069757576,not nodal
928,3_9_157_0,3_9_157_0,Lucknow,Uttar Pradesh,Lucknow,Uttar Pradesh,Lucknow,Uttar Pradesh,Lucknow,NA,Uttar Pradesh,Lucknow,80.90433671,26.84254729,69.28641764624253,281.82985083144473,8.270531768891507,240.05159688932807,not nodal
929,3_9_159_0,3_9_159_0,Farrukabad,Uttar Pradesh,Farrukhabad,Uttar Pradesh,Farrukhabad,Uttar Pradesh,Farrukhabad,NA,Uttar Pradesh,Farrukhabad,79.45964055,27.43162273,79.81501531086552,146.24061515873768,6.598864194704184,139.51763308348873,not nodal
930,3_9_160_0,3_9_160_0,Kannauj,Uttar Pradesh,Kannauj,Uttar Pradesh,Kannauj,Uttar Pradesh,Kannauj,NA,Uttar Pradesh,Kannauj,79.69002236,27.01631618,62.31756573427917,166.8500935777392,35.342641823796,139.84936174528605,not nodal
933,3_9_163_0,3_9_163_0,Kanpur Dehat,Uttar Pradesh,Kanpur Dehat,Uttar Pradesh,Kanpur Dehat,Uttar Pradesh,Kanpur Dehat,NA,Uttar Pradesh,Kanpur Dehat,79.8530797,26.44455706,17.26852927887595,171.62427475142022,82.40905366184104,126.72350469532034,not nodal
934,3_9_164_0,3_9_164_0,Kanpur Nagar,Uttar Pradesh,Kanpur Nagar,Uttar Pradesh,Kanpur Nagar,Uttar Pradesh,Kanpur Nagar,NA,Uttar Pradesh,Kanpur Nagar,80.20982702,26.38718859,3.393824080473704,196.2315317536642,70.1664166411693,155.9747656311237,not nodal
936,3_9_166_0,3_9_166_0,Jhansi,Uttar Pradesh,Jhansi,Uttar Pradesh,Jhansi,Uttar Pradesh,Jhansi,NA,Uttar Pradesh,Jhansi,78.95213552,25.51257532,114.05645030140363,39.722958219674304,217.36474716195357,0,nodal
940,3_9_170_0,3_9_170_0,Banda,Uttar Pradesh,Banda,Uttar Pradesh,Banda,Uttar Pradesh,Banda,NA,Uttar Pradesh,Banda,80.55863038,25.47454605,54.23160705598548,200.0013643862243,140.4271276789839,161.47627784553805,not nodal
941,3_9_171_0,3_9_171_0,Chitrakoot,Uttar Pradesh,Chitrakoot,Uttar Pradesh,Chitrakoot,Uttar Pradesh,Chitrakoot,NA,Uttar Pradesh,Chitrakoot,81.07513586,25.20846825,54.03900319134021,253.23159498980255,139.70707643243614,216.22014071194548,not nodal
944,3_9_174_0,3_9_174_0,Kaushambi,Uttar Pradesh,Kaushambi,Uttar Pradesh,Kaushambi,Uttar Pradesh,Kaushambi,NA,Uttar Pradesh,Kaushambi,81.41895184,25.49495813,9.533023112343148,286.48125386345504,94.68752519355407,247.85062966088972,not nodal
945,3_9_175_0,3_9_175_0,Allahabad,Uttar Pradesh,Allahabad,Uttar Pradesh,Allahabad,Uttar Pradesh,Allahabad,NA,Uttar Pradesh,Allahabad,81.96190487,25.30509675,13.558161716263003,341.4531253998202,84.9517210182297,303.51008455876575,not nodal
946,3_9_176_0,3_9_176_0,Barabanki,Uttar Pradesh,Bara Banki,Uttar Pradesh,Barabanki,Uttar Pradesh,Barabanki,NA,Uttar Pradesh,Bara Banki,81.33488267,26.93930764,108.95996567847088,323.74802518852687,39.13605500038797,283.230370420137,not nodal
947,3_9_177_0,3_9_177_0,Faizabad,Uttar Pradesh,Faizabad,Uttar Pradesh,Faizabad,Uttar Pradesh,Faizabad,NA,Uttar Pradesh,Faizabad,81.99451282,26.6563425,127.35572772739047,369.0440601568228,45.52361041601613,329.7388390620168,not nodal
948,3_9_178_0,3_9_178_0,Ambedkar Nagar,Uttar Pradesh,Ambedkar Nagar,Uttar Pradesh,Ambedkar Nagar,Uttar Pradesh,Ambedkar Nagar,NA,Uttar Pradesh,Ambedkar Nagar,82.66845825,26.41780977,124.68210357543134,425.0434924157579,57.317433438058345,385.3311655365435,not nodal
949,3_9_179_0,3_9_179_0,Sultanpur,Uttar Pradesh,Sultanpur,Uttar Pradesh,Sultanpur,Uttar Pradesh,Sultanpur,NA,Uttar Pradesh,Sultanpur,82.01923107,26.27611157,85.40940143352987,358.39141819108534,10.570655584780141,318.68153217334856,not nodal
950,3_9_180_0,3_9_180_0,Bahraich,Uttar Pradesh,Bahraich,Uttar Pradesh,Bahraich,Uttar Pradesh,Bahraich,NA,Uttar Pradesh,Bahraich,81.49685388,27.70168499,180.0735240359986,349.46380901380667,120.00896677232863,333.5684771388505,not nodal
951,3_9_181_0,3_9_181_0,Sharawasti,Uttar Pradesh,Shrawasti,Uttar Pradesh,Shrawasti,Uttar Pradesh,Shrawasti,NA,Uttar Pradesh,Shrawasti,81.90624278,27.7176763,208.2659262994668,389.63801074804616,142.07595944913686,370.84269682874293,not nodal
954,3_9_184_0,3_9_184_0,Siddharathnagar,Uttar Pradesh,Siddharthnagar,Uttar Pradesh,Siddarthnagar,Uttar Pradesh,Siddharthnagar,NA,Uttar Pradesh,Siddharthnagar,82.8712809,27.27557434,217.7936916318489,476.068239309643,149.05516855230024,436.84939070169503,not nodal
958,3_9_188_0,3_9_188_0,Gorakhpur,Uttar Pradesh,Gorakhpur,Uttar Pradesh,Gorakhpur,Uttar Pradesh,Gorakhpur,NA,Uttar Pradesh,Gorakhpur,83.35978817,26.65479187,150.50710072503549,498.31877407861043,115.42873119764545,458.63007226396445,not nodal
959,3_9_189_0,3_9_189_0,Kushinagar,Uttar Pradesh,Kushinagar,Uttar Pradesh,Kushinagar,Uttar Pradesh,Kushinagar,NA,Uttar Pradesh,Kushinagar,83.93035569,26.8610066,185.8179577993718,559.0668652313219,164.50063498311007,519.4054570467373,not nodal
960,3_9_190_0,3_9_190_0,Deoria,Uttar Pradesh,Deoria,Uttar Pradesh,Deoria,Uttar Pradesh,Deoria,NA,Uttar Pradesh,Deoria,83.83231925,26.42194877,136.0817979418347,538.4633368671449,117.98163236057925,498.75862044255376,not nodal
962,3_9_192_0,3_9_192_0,Mau,Uttar Pradesh,Mau,Uttar Pradesh,Mau,Uttar Pradesh,Mau,NA,Uttar Pradesh,Mau,83.56311643,26.03954609,89.06200876918479,505.40002110029644,67.8253613940534,465.90125667679064,not nodal
963,3_9_193_0,3_9_193_0,Baliya,Uttar Pradesh,Ballia,Uttar Pradesh,Ballia,Uttar Pradesh,Ballia,NA,Uttar Pradesh,Ballia,84.09857102,25.87777334,91.38270375871821,557.0834166285342,80.59508534850161,517.8108796255738,not nodal
965,3_9_195_0,3_9_195_0,Ghazipur,Uttar Pradesh,Ghazipur,Uttar Pradesh,Ghazipur,Uttar Pradesh,Ghazipur,NA,Uttar Pradesh,Ghazipur,83.55724426,25.62299747,43.10886044333106,501.4932895783479,28.134484994729984,462.57844287621725,not nodal
966,3_9_196_0,3_9_196_0,Chandauli,Uttar Pradesh,Chandauli,Uttar Pradesh,Chandauli,Uttar Pradesh,Chandauli,NA,Uttar Pradesh,Chandauli,83.25704394,25.14071105,13.88435512127156,472.8253391242626,33.252500198405166,435.1130553129457,not nodal
967,3_9_197_0,3_9_197_0,Varanasi,Uttar Pradesh,Varanasi,Uttar Pradesh,Varanasi,Uttar Pradesh,Varanasi,NA,Uttar Pradesh,Varanasi,82.91350367,25.39056884,12.040245460329336,436.7739170401382,27.505271387017537,398.396904058843,not nodal
968,3_9_198_0,3_9_198_0,Sant Ravidas Nagar,Uttar Pradesh,Sant Ravidas Nagar (Bhadohi),Uttar Pradesh,Sant Ravidas Nagar,Uttar Pradesh,S. R. Nagar Bhadohi,NA,Uttar Pradesh,Sant Ravidas Nagar (Bhadohi),82.46274504,25.34773648,5.7160387906412495,391.59708478588044,54.99728595622717,353.400818813985,not nodal
1002,3_10_204_0,3_10_204_0,Purbi Champaran,Bihar,Purba Champaran,Bihar,Purba Champaran,Bihar,Champaran(E),NA,Bihar,Purba Champaran,84.91945968,26.61822418,204.14808251791695,648.9202977015766,193.47161582638216,609.2122398825543,not nodal
1005,3_10_207_0,3_10_207_0,Madhubani,Bihar,Madhubani,Bihar,Madhubani,Bihar,Madhubani,NA,Bihar,Madhubani,86.21968826,26.40289477,241.75036040818262,773.5855348945996,242.4887431881107,734.019806945075,not nodal
1006,3_10_208_0,3_10_208_0,Supaul,Bihar,Supaul,Bihar,Supaul,Bihar,Supaul,NA,Bihar,Supaul,86.80625861,26.24222266,257.220399480476,830.148553628313,259.1101701151545,790.7055247322527,not nodal
1009,3_10_211_0,3_10_211_0,Purnia,Bihar,Purnia,Bihar,Purnia,Bihar,Purnia,NA,Bihar,Purnia,87.40381889,25.8151481,236.82459575790185,887.6369471277835,251.90162024548675,848.5464824740857,not nodal
1012,3_10_214_0,3_10_214_0,Saharsa,Bihar,Saharsa,Bihar,Saharsa,Bihar,Saharsa,NA,Bihar,Saharsa,86.59138123,25.81098554,205.4492249283205,806.2275707181635,207.34237805289044,767.1304500418149,not nodal
1014,3_10_216_0,3_10_216_0,Muzaffar Pur,Bihar,Muzaffarpur,Bihar,Muzaffarpur,Bihar,Muzaffarpur,NA,Bihar,Muzaffarpur,85.3239361,26.1534552,180.46228190691056,681.7875993158916,171.31526646233058,642.3291871586086,not nodal
1016,3_10_218_0,3_10_218_0,Siwan,Bihar,Siwan,Bihar,Siwan,Bihar,Siwan,NA,Bihar,Siwan,84.38273486,26.1577041,132.921002534121,588.3134012985706,121.91255067279549,548.7852964672204,not nodal
1017,3_10_219_0,3_10_219_0,Saran,Bihar,Saran,Bihar,Saran,Bihar,Saran,NA,Bihar,Saran,84.82793511,25.90204747,128.99532715405002,630.1469290897825,121.38622866272938,590.892358932111,not nodal
1022,3_10_224_0,3_10_224_0,Bhagal Pur,Bihar,Bhagalpur,Bihar,Bhagalpur,Bihar,Bhagalpur,NA,Bihar,Bhagalpur,87.08221812,25.27069287,169.73366648583539,856.4037159695371,183.7642330717709,817.9242112922478,not nodal
1023,3_10_225_0,3_10_225_0,Banka,Bihar,Banka,Bihar,Banka,Bihar,Banka,NA,Bihar,Banka,86.83644416,24.85424007,118.08353829207918,835.3434671906075,131.5813074409442,797.5077329356483,not nodal
1026,3_10_228_0,3_10_228_0,Sheikhpura,Bihar,Sheikhpura,Bihar,Sheikhpura,Bihar,Sheikhpura,NA,Bihar,Sheikhpura,85.82747407,25.1230479,99.23874766594999,731.2645309380787,101.83574407942322,693.1256411693962,not nodal
1027,3_10_229_0,3_10_229_0,Nalanda,Bihar,Nalanda,Bihar,Nalanda,Bihar,Nalanda,NA,Bihar,Nalanda,85.44873044,25.21601063,89.29024960258292,692.5084691294921,90.14558078856294,654.2510772594674,not nodal
1028,3_10_230_0,3_10_230_0,Patna,Bihar,Patna,Bihar,Patna,Bihar,Patna,NA,Bihar,Patna,85.23856468,25.45303958,108.84307404082644,670.3369867669911,101.10359255063531,631.6974538089913,not nodal
1030,3_10_232_0,3_10_232_0,Buxar,Bihar,Buxar,Bihar,Buxar,Bihar,Buxar,NA,Bihar,Buxar,84.10315902,25.49561233,57.05331516444776,556.1802931682246,44.797860603489,517.5042773028115,not nodal
1031,3_10_233_0,3_10_233_0,Kaimur (Bhabua),Bihar,Kaimur (Bhabua),Bihar,Kaimur (Bhabua),Bihar,Kaimur (Bhabua),NA,Bihar,Kaimur (Bhabua),83.60263836,24.9926489,18.272183895861883,509.1252102179879,29.108451322590458,471.7565572129037,not nodal
1032,3_10_234_0,3_10_234_0,Rohtas,Bihar,Rohtas,Bihar,Rohtas,Bihar,Rohtas,NA,Bihar,Rohtas,84.02339103,24.98460405,3.6493427119857045,551.4180817447506,7.639971846300207,513.9359719130822,not nodal
1035,3_10_236_0,3_10_236_0,Gaya,Bihar,Gaya,Bihar,Gaya,Bihar,Gaya,NA,Bihar,Gaya,84.93412544,24.69766719,19.367612296770773,646.7691565490305,13.875239400051088,609.7321707372218,not nodal
1104,3_11_244_0,3_11_244_0,East Sikkim,Sikkim,East District,Sikkim,East (Gangtok),Sikkim,East (Gangtok),NA,Sikkim,East District,88.67053289,27.2934609,434.413518746369,1028.4960361135145,457.86215949526394,988.7775357881679,not nodal
1204,3_12_248_0,3_12_248_0,Papujm Prae,Arunachal Pradesh,Papum Pare,Arunachal Pradesh,Papum Pare,NA,NA,NA,Arunachal Pradesh,Papum Pare,93.53339346,26.95475533,680.3639736416142,1503.5510090505254,718.8742701364636,1463.9800598209802,not nodal
1303,3_13_262_0,3_13_262_0,Mokochung,Nagaland,Mokokchung,Nagaland,Mokokchung,Nagaland,Mokokchung,NA,Nagaland,Mokokchung,94.52979928,26.47343214,732.0811395735612,1600.8121838321993,764.0937932311517,1561.398563500451,not nodal
1305,3_13_264_0,3_13_264_0,Wokkha,Nagaland,Wokha,Nagaland,Wokha,Nagaland,Wokha,NA,Nagaland,Wokha,94.19680338,26.19540231,687.8837093887612,1567.491888621492,719.2969707511018,1528.1848376353116,not nodal
1306,3_13_265_0,3_13_265_0,Dimapur,Nagaland,Dimapur,Nagaland,Dimapur,Nagaland,Dimapur,NA,Nagaland,Dimapur,93.78982498,25.78235058,630.125429309905,1527.6147091385349,660.1622296563776,1488.5037592122467,not nodal
1307,3_13_270_0,3_13_270_0,Kohima,Nagaland,Kohima,Nagaland,Kohima,Nagaland,Kohima,Peren district split from Kohima,Nagaland,Kohima,94.10037852,25.76456447,656.9746458473345,1558.7947364286251,685.7219703982996,1519.687831614349,not nodal
1405,3_14_273_0,3_14_273_0,Tamenglong,Manipur,Tamenglong,Manipur,Tamenglong,Manipur,Tamenglong,NA,Manipur,Tamenglong,93.53129886,24.95629163,568.2972329504372,1507.2384128325834,592.5704406853421,1468.6419575609077,not nodal
1406,3_14_277_0,3_14_277_0,Imphal West,Manipur,Imphal West,Manipur,Imphal West,Manipur,Imphal West,NA,Manipur,Imphal West,93.87506858,24.78909533,594.5615576189689,1543.5845229270785,616.4211321860137,1505.084937559409,not nodal
1407,3_14_278_0,3_14_278_0,Imphal East,Manipur,Imphal East,Manipur,Imphal East,Manipur,Imphal East,NA,Manipur,Imphal East,93.69870298,24.79951518,578.0746979307612,1525.7358340747849,600.5274707409396,1487.2409275100138,not nodal
1503,3_15_283_0,3_15_283_0,Aizawl,Mizoram,Aizawl,Mizoram,Aizwal,NA,NA,NA,Mizoram,Aizawl,92.88721245,23.82581225,469.6987468857093,1450.197000373634,485.6493788435966,1421.4329367383011,not nodal
1601,3_16_289_0,3_16_289_0,West Tripura,Tripura,West Tripura,Tripura,West Tripura,Tripura,West Tripura,NA,Tripura,West Tripura,91.4629071,23.80343613,328.3022320079844,1306.8465153136303,348.2500164847727,1279.4087663118507,not nodal
1602,3_16_290_0,3_16_290_0,South Tripura,Tripura,South Tripura,Tripura,South Tripura,Tripura,South Tripura,NA,Tripura,South Tripura,91.60526231,23.36685481,332.09254130639846,1313.1792871511975,345.895875804278,1303.82732218308,not nodal
1705,3_17_297_0,3_17_297_0,RBHOI,Meghalaya,Ribhoi,Meghalaya,Ri Bhoi,Meghalaya,Ri Bhoi,NA,Meghalaya,Ribhoi,91.88104992,25.86682994,476.2173016187688,1336.18892448977,516.0978093663156,1297.0553401907594,not nodal
1706,3_17_298_0,3_17_298_0,East Khasi Hills,Meghalaya,East Khasi Hills,Meghalaya,East Khasi Hills,Meghalaya,East Khasi Hills,NA,Meghalaya,East Khasi Hills,91.79953247,25.3844549,436.5639302691218,1329.7941153931679,473.1943358905485,1290.97604161046,not nodal
1707,3_17_299_0,3_17_299_0,Jaintia Hills,Meghalaya,Jaintia Hills,Meghalaya,Jaintia Hills,Meghalaya,Jaintia Hills,NA,Meghalaya,Jaintia Hills,92.37795066,25.37030113,484.14766331613714,1387.9695710869187,517.2888471437135,1349.140267112802,not nodal
1802,3_18_301_0,3_18_301_0,Dhubri,Assam,Dhubri,Assam,Dhubri,Assam,Dhubri,NA,Assam,Dhubri,90.00679593,26.05541001,373.69528308367387,1148.639798501931,418.04683212498026,1109.394882624846,not nodal
1803,3_18_302_0,3_18_302_0,Goalpara,Assam,Goalpara,Assam,Goalpara,Assam,Goalpara,NA,Assam,Goalpara,90.60198923,26.05316995,404.9995241785873,1208.152872680696,451.2794764868506,1168.9131978419382,not nodal
1806,3_18_321_0,3_18_303_0,Kamrup,Assam,Kamrup,Assam,Kamrup,Assam,Kamrup rural,"Kamrup Metropolitan district split from Kamrup; Baksa district formed from parts of Barpeta, Nalbari, and Kamrup; Chirang district formed from parts of Barpeta, Bongaigaon, and Kokrajhar.",Assam,Kamrup,91.41898606,26.09932643,460.6130424117886,1289.8934451496943,504.7193581910159,1250.6314565210905,not nodal
1809,3_18_304_0,3_18_304_0,Marigaon,Assam,Morigaon,Assam,Marigaon,Assam,Marigaon,NA,Assam,Morigaon,92.28544771,26.2816855,537.0159686415159,1376.704192724191,577.3772044262355,1337.3569599731602,not nodal
1814,3_18_309_0,3_18_309_0,Tinsukia,Assam,Tinsukia,Assam,Tinsukia,Assam,Tinsukia,NA,Assam,Tinsukia,95.62034692,27.5850395,889.0442382092359,1714.1462905510955,923.6146870213523,1674.4755350560283,not nodal
1817,3_18_312_0,3_18_312_0,Jorhat,Assam,Jorhat,Assam,Jorhat,Assam,Jorhat,NA,Assam,Jorhat,94.23271739,26.79710956,726.055625597863,1572.1173886394276,761.0285415547565,1532.5977682628761,not nodal
1819,3_18_314_0,3_18_314_0,Karbi Amglong,Assam,Karbi Anglong,Assam,Karbi Anglong,Assam,Karbi Anglong,NA,Assam,Karbi Anglong,93.14380517,26.06504004,590.5281415087658,1462.3404589530724,625.3106150379418,1423.0949207217195,not nodal
1821,3_18_316_0,3_18_316_0,Cachar,Assam,Cachar,Assam,Cachar,Assam,Cachar,NA,Assam,Cachar,92.85407659,24.81181597,498.8983505845326,1440.6824612642733,524.3604603404181,1402.2388173787417,not nodal
1901,3_19_327_0,3_19_327_0,Darjiling,West Bengal,Darjiling,West Bengal,Darjiling,West Bengal,Darjiling,NA,West Bengal,Darjiling,88.39061407,26.91400249,384.92914026500915,994.8731938247294,407.5407596943887,955.2064569852276,not nodal
1902,3_19_328_0,3_19_328_0,Jalapiguri,West Bengal,Jalpaiguri,West Bengal,Jalpaiguri,West Bengal,Jalpaiguri,NA,West Bengal,Jalpaiguri,89.07787858,26.6592145,389.62214133416165,1059.671897479841,421.83464814929107,1020.1049809769739,nodal
1904,3_19_330_0,3_19_330_0,Uttar Dinajpur,West Bengal,Uttar Dinajpur,West Bengal,Uttar Dinajpur,West Bengal,Uttar Dinajpur,NA,West Bengal,Uttar Dinajpur,88.15614722,25.89085667,270.76344534525606,963.1350591460098,300.15333969310956,923.9876385143883,not nodal
1906,3_19_332_0,3_19_332_0,Maldah,West Bengal,Maldah,West Bengal,Maldah,West Bengal,Maldah,NA,West Bengal,Maldah,88.08424058,25.13069517,192.531065449797,958.0897331964808,225.8782592199021,919.7111428031149,not nodal
1907,3_19_333_0,3_19_333_0,Murshidabad,West Bengal,Murshidabad,West Bengal,Murshidabad,West Bengal,Murshidabad,NA,West Bengal,Murshidabad,88.2297266,24.16124421,106.37169161781523,986.0444681178982,144.26304134799585,949.0334241147525,not nodal
1908,3_19_334_0,3_19_334_0,Birbhum,West Bengal,Birbhum,West Bengal,Birbhum,West Bengal,Birbhum,NA,West Bengal,Birbhum,87.664085,23.95348735,59.10804397319524,934.0534614134111,93.50318185088219,897.5921836655955,not nodal
1909,3_19_335_0,3_19_335_0,Barddhaman,West Bengal,Barddhaman,West Bengal,Barddhaman,West Bengal,Barddhaman,NA,West Bengal,Barddhaman,87.76815569,23.42848264,12.27243343946291,929.725720782031,50.591695485742704,922.6534712119724,not nodal
1910,3_19_336_0,3_19_336_0,Nadia,West Bengal,Nadia,West Bengal,Nadia,West Bengal,Nadia,NA,West Bengal,Nadia,88.51638,23.47787601,50.35890975650804,1005.2979834125225,97.13141968399093,994.7150881577319,not nodal
1911,3_19_337_0,3_19_337_0,North 24 Parganas,West Bengal,North Twenty Four Parganas,West Bengal,North 24-Parganas,West Bengal,North 24-Parganas,NA,West Bengal,North Twenty Four Parganas,88.73224198,22.72636314,37.00224257181003,1011.6935946812584,44.58589404945347,1040.6051535805786,not nodal
1912,3_19_338_0,3_19_338_0,Hugli,West Bengal,Hugli,West Bengal,Hugli,West Bengal,Hugli,NA,West Bengal,Hugli,88.07382208,22.88337049,27.266904692647802,947.7006138248967,17.191503884650515,971.0634348561467,not nodal
1913,3_19_339_0,3_19_339_0,Bankura,West Bengal,Bankura,West Bengal,Bankura,West Bengal,Bankura,NA,West Bengal,Bankura,87.13373394,23.13875172,45.724699977330346,859.0603668931188,11.716183080896894,870.7615486273806,not nodal
1916,3_19_341_0,3_19_341_0,Haora,West Bengal,Haora,West Bengal,Haora,West Bengal,Howrah,NA,West Bengal,Haora,88.064475,22.52341138,5.959926184668589,940.6367680005129,16.699462535914954,984.1819870744418,nodal
1917,3_19_342_0,3_19_342_0,Kolkata,West Bengal,Kolkata,West Bengal,Culcutta,West Bengal,Kolkata,NA,West Bengal,Kolkata,88.35710282,22.52507523,5.347587933239388,970.498830600805,0,1012.1475732941152,nodal
1918,3_19_343_0,3_19_343_0,South 24 Parganas,West Bengal,South Twenty Four Parganas,West Bengal,South 24-Parganas,West Bengal,South 24-Parganas,NA,West Bengal,South Twenty Four Parganas,88.56974882,22.0274934,64.38028738460649,986.9474272563211,57.21138447149893,1053.4217503350899,not nodal
2002,3_20_358_0,3_20_359_0,Palamu,Jharkhand,Palamu,Jharkhand,Palamu,Jharkhand,Palamu,Latehar district split from Palamu,Jharkhand,Palamu,84.16578607,24.20125398,63.89122039118411,581.495762441426,74.02311699002327,546.423036721383,not nodal
2012,3_20_354_0,3_20_354_0,Dhanbad,Jharkhand,Dhanbad,Jharkhand,Dhanbad,Jharkhand,Dhanbad,NA,Jharkhand,Dhanbad,86.46929588,23.82684007,1.5627459591088202,815.8621198997001,15.674104892939528,783.1065378530708,not nodal
2013,3_20_355_0,3_20_355_0,Bokaro,Jharkhand,Bokaro,Jharkhand,Bokaro,Jharkhand,Bokaro,NA,Jharkhand,Bokaro,85.99739314,23.69336729,28.434210622133833,765.603768915557,22.68551039749224,741.1511534413436,not nodal
2014,3_20_364_0,3_20_364_0,Ranchi,Jharkhand,Ranchi,Jharkhand,Ranchi,Jharkhand,Ranchi,Khunti district split from Ranchi;,Jharkhand,Ranchi,85.3775263,23.33166127,93.17365409318613,692.4440820934094,90.46697166905366,694.9367802857205,not nodal
2017,3_20_368_0,3_20_368_0,Pashchimi Singbhum,Jharkhand,Pashchimi Singhbhum,Jharkhand,Pashchimi singhbhum,Jharkhand,Singhbhum(W),Seraikela district split from Pashchim Singhbhum,Jharkhand,Pashchimi Singhbhum,85.51768369,22.42136749,108.71729816066474,680.1404448321764,168.2499848131942,751.1280440992336,not nodal
2018,3_20_357_0,3_20_357_0,Purbi Singhbhum,Jharkhand,Purbi Singhbhum,Jharkhand,Purbi Singhbhum,Jharkhand,Singhbhum (E),NA,Jharkhand,Purbi Singhbhum,86.45032928,22.58034027,42.79448861046505,777.6771236839015,101.7854494100487,828.999988039775,not nodal
2101,3_21_370_0,3_21_370_0,Bargarh,Odisha,Bargarh,Orissa,Bargarh,Orissa,Bargarh,NA,Odisha,Bargarh,83.35449952,21.22162387,254.9634310366387,443.8264636409196,211.52964462937234,555.4799162537983,not nodal
2102,3_21_371_0,3_21_371_0,Jharsuguda,Odisha,Jharsuguda,Orissa,Jharsuguda,Orissa,Jharsuguda,NA,Odisha,Jharsuguda,83.95038609,21.80832852,250.40473930761658,509.73398189528893,222.1946538635604,631.5940057412097,not nodal
2103,3_21_372_0,3_21_372_0,Sambalpur,Odisha,Sambalpur,Orissa,Sambalpur,Orissa,Sambalpur,NA,Odisha,Sambalpur,84.27352556,21.45150372,199.03582587619033,539.7048167445821,170.4901694898286,654.0382820524154,not nodal
2105,3_21_374_0,3_21_374_0,Sundargarh,Odisha,Sundargarh,Orissa,Sundargarh,Orissa,Sundargarh,NA,Odisha,Sundargarh,84.51378565,22.07916015,208.6564891121891,571.6512343754632,208.41909603925214,683.225320425294,not nodal
2106,3_21_375_0,3_21_375_0,Kendujhar,Odisha,Kendujhar,Orissa,Kendujhar,Orissa,Kendujhar,NA,Odisha,Kendujhar,85.6984859,21.53500857,86.73759406840605,687.558842301163,84.52927585911378,800.6001961039582,not nodal
2107,3_21_376_0,3_21_376_0,Mayurbhanj,Odisha,Mayurbhanj,Orissa,Mayurbhanj,Orissa,Mayurbhanj,NA,Odisha,Mayurbhanj,86.40529524,21.89385418,30.41987574100095,763.0004933297262,69.73344515826744,859.6334479214106,not nodal
2108,3_21_377_0,3_21_377_0,Baleshwar,Odisha,Baleshwar,Orissa,Baleshwar,Orissa,Baleshwar,NA,Odisha,Baleshwar,86.91311343,21.49988458,0.20547543129942367,813.1701156033577,2.8704001192188415,924.1315626286475,not nodal
2109,3_21_378_0,3_21_378_0,Bhadrak,Odisha,Bhadrak,Orissa,Bhadrak,Orissa,Bhadrak,NA,Odisha,Bhadrak,86.62173456,20.98842605,16.13692811986149,783.6762392075585,22.693767722283752,887.5146144481427,not nodal
2112,3_21_381_0,3_21_381_0,Cuttack,Odisha,Cuttack,Orissa,Cuttack,Orissa,Cuttack,NA,Odisha,Cuttack,85.69484883,20.45162237,20.14356480931016,692.919325743927,8.67067257619817,787.6387779941693,not nodal
2113,3_21_382_0,3_21_382_0,Jajapur,Odisha,Jajapur,Orissa,Jajapur,Orissa,Jajapur,NA,Odisha,Jajapur,86.14983696,20.85429642,4.0144571618864395,735.5568018269163,3.6110556881079736,837.3795352537081,not nodal
2114,3_21_383_0,3_21_383_0,Dhenkanal,Odisha,Dhenkanal,Orissa,Dhenkanal,Orissa,Dhenkanal,NA,Odisha,Dhenkanal,85.52559266,20.81950801,53.55871697834309,671.0612335499785,34.16435093032455,772.3331574425239,not nodal
2115,3_21_384_0,3_21_384_0,Anugul,Odisha,Anugul,Orissa,Anugul,Orissa,Anugul,NA,Odisha,Anugul,84.90701821,20.9817179,115.85325423134984,605.7077675913113,88.65845804001059,710.1673382047092,not nodal
2116,3_21_385_0,3_21_385_0,Nayagarh,Odisha,Nayagarh,Orissa,Nauagarh,Orissa,Nayagarh,NA,Odisha,Nayagarh,84.99535855,20.21616269,53.48696800011574,625.0136336595201,17.06867306370118,714.2410559275327,not nodal
2117,3_21_386_0,3_21_386_0,Khordha,Odisha,Khordha,Orissa,Khordha,Orissa,Khordha,NA,Odisha,Khordha,85.51862332,20.09682349,3.774295128534426,681.222433161747,27.725029860584193,769.0570431815144,not nodal
2118,3_21_387_0,3_21_387_0,Puri,Odisha,Puri,Orissa,Puri,Orissa,Puri,NA,Odisha,Puri,85.72049214,19.8781144,26.94216115480362,706.9316693528434,59.934012509850675,790.9675038798653,not nodal
2119,3_21_388_0,3_21_388_0,Ganjam,Odisha,Ganjam,Orissa,Ganjam,Orissa,Ganjam,NA,Odisha,Ganjam,84.67202968,19.6230559,38.7478794892268,608.1344865189163,12.511931667533139,682.1824962370666,not nodal
2120,3_21_389_0,3_21_389_0,Gajapati,Odisha,Gajapati,Orissa,Gajapati,Orissa,Gajapati,NA,Odisha,Gajapati,84.15615832,19.18107763,46.78460252011859,572.4129895585797,16.052732776873242,629.5471023342812,not nodal
2121,3_21_390_0,3_21_390_0,Kandhamal,Odisha,Kandhamal,Orissa,Kandhamal,Orissa,Kandhamal,NA,Odisha,Kandhamal,84.04582716,20.13198637,122.8097146382058,529.8966678772744,72.73375048162586,615.0654276340887,not nodal
2122,3_21_391_0,3_21_391_0,Baudh,Odisha,Baudh,Orissa,Baudh,Orissa,Baudh,NA,Odisha,Baudh,84.1711352,20.6449032,148.58372173016883,532.6443882049925,108.29142366309567,630.197734462405,not nodal
2123,3_21_392_0,3_21_392_0,Sonapur,Odisha,Subarnapur,Orissa,Sonapur,Orissa,Sonapur,NA,Odisha,Subarnapur,83.82398238,20.92816143,196.52503680323377,493.6603812233484,155.44695823932432,597.7559694121569,not nodal
2124,3_21_393_0,3_21_393_0,Balangir,Odisha,Balangir,Orissa,Balangir,Orissa,Balangir,NA,Odisha,Balangir,83.18119307,20.59146674,223.35709941418975,431.3568461004547,169.4384377388052,526.9278230835214,not nodal
2126,3_21_395_0,3_21_395_0,Kalahandi,Odisha,Kalahandi,Orissa,Kalahandi,Orissa,Kalahandi,NA,Odisha,Kalahandi,83.10703358,19.86822871,179.7546974666676,443.37433831144153,112.8571555083684,517.5276221925241,not nodal
2127,3_21_396_0,3_21_396_0,Rayagada,Odisha,Rayagada,Orissa,Rayagada,Orissa,Rayagada,NA,Odisha,Rayagada,83.51343649,19.36584294,111.0309239328187,501.9950261831644,42.79871406520576,561.4797295055872,not nodal
2128,3_21_397_0,3_21_397_0,Nabarangapur,Odisha,Nabarangapur,Orissa,Nabarangapur,Orissa,Nabarangapur,NA,Odisha,Nabarangapur,82.3355493,19.57777943,207.98618602064815,378.62990358408035,140.03044158418592,437.3754991251251,not nodal
2129,3_21_398_0,3_21_398_0,Koraput,Odisha,Koraput,Orissa,Koraput,Orissa,Koraput,NA,Odisha,Koraput,82.7262276,18.80727056,117.35083342009953,449.5586434667706,48.20811680805525,480.1691897483577,not nodal
2130,3_21_399_0,3_21_399_0,Malkangiri,Odisha,Malkangiri,Orissa,Malkangiri,Orissa,Malkangiri,NA,Odisha,Malkangiri,81.9469391,18.25131332,115.50537968275725,368.7033222575948,53.92337223759142,399.1881540883838,not nodal
2201,3_22_400_0,3_22_400_0,Koriya,Chhattisgarh,Koriya,Chhatisgarh,Koria,Chhattisgarh,Koriya,NA,Chhattisgarh,Koriya,82.22904683,23.47596672,200.54414946735145,414.343653510036,245.60206819914706,401.9566594647325,not nodal
2202,3_22_401_0,3_22_401_0,Sarguja,Chhattisgarh,Surguja,Chhatisgarh,Surguja,Chhattisgarh,Surguja,NA,Chhattisgarh,Surguja,83.21807156,23.36001667,192.25263424357047,491.71223118932863,204.24298612540508,494.25544407196185,not nodal
2203,3_22_402_0,3_22_402_0,Jashpur,Chhattisgarh,Jashpur,Chhatisgarh,Jashpur,Chhattisgarh,Jashpur,NA,Chhattisgarh,Jashpur,83.86700978,22.80180245,217.09238526333812,526.9375443507188,222.36614262100605,583.2396263215215,not nodal
2204,3_22_403_0,3_22_403_0,Raigarh,Chhattisgarh,Raigarh,Chhatisgarh,Raigarh,Chhattisgarh,Raigarh,NA,Chhattisgarh,Raigarh,83.30488138,22.09427585,313.148074083384,449.5026814021902,289.0386874023459,579.085003612042,not nodal
2205,3_22_404_0,3_22_404_0,Korba,Chhattisgarh,Korba,Chhatisgarh,Korba,Chhattisgarh,Korba,NA,Chhattisgarh,Korba,82.61001026,22.53745528,301.22948155134253,395.7459734434124,314.90303514244783,497.94649614032835,not nodal
2206,3_22_405_0,3_22_405_0,Janjgir,Chhattisgarh,Janjgir - Champa,Chhatisgarh,Janjgir-Champa,Chhattisgarh,Janjgir-Champa,NA,Chhattisgarh,Janjgir - Champa,82.73205852,21.92997238,355.0339846747754,387.84043095268424,312.93422978964657,517.4355353484502,not nodal
2207,3_22_406_0,3_22_406_0,Bilas Pur,Chhattisgarh,Bilaspur,Chhatisgarh,Bilaspur,Chhattisgarh,Bilaspur,NA,Chhattisgarh,Bilaspur,81.95758566,22.34911557,328.9391474716793,325.7348841555367,367.58550198665114,466.35611908168084,not nodal
2208,3_22_407_0,3_22_407_0,Kawardha,Chhattisgarh,Kabeerdham,Chhatisgarh,Kawardha,Chhattisgarh,Kawardha,NA,Chhattisgarh,Kabeerdham,81.22252087,22.09648009,373.70897213334047,245.10204565468254,427.4867427869936,388.8599706397263,not nodal
2209,3_22_408_0,3_22_408_0,Rajnandgaon,Chhattisgarh,Rajnandgaon,Chhatisgarh,Rajnandgaon,Chhattisgarh,Rajnandgaon,NA,Chhattisgarh,Rajnandgaon,80.81543416,21.03583687,434.5115981768308,180.89398266122313,365.61666640429235,296.1645259510363,not nodal
2210,3_22_409_0,3_22_409_0,Durg,Chhattisgarh,Durg,Chhatisgarh,Durg,Chhattisgarh,Durg,NA,Chhattisgarh,Durg,81.35154911,21.20101881,413.73832644848443,235.95481488759472,343.41896118128216,354.7610866465012,not nodal
2211,3_22_410_0,3_22_410_0,Raipur,Chhattisgarh,Raipur,Chhatisgarh,Raipur,Chhattisgarh,Raipur,NA,Chhattisgarh,Raipur,82.17885356,21.07194791,337.69581152698646,322.0714105937619,277.07837617859,432.8181304419979,not nodal
2212,3_22_411_0,3_22_411_0,Mahasamund,Chhattisgarh,Mahasamund,Chhatisgarh,Mahasamund,Chhattisgarh,Mahasamund,NA,Chhattisgarh,Mahasamund,82.60656807,21.20965748,313.66344253789896,366.20645137741883,260.1973043626825,479.6290209051809,not nodal
2213,3_22_412_0,3_22_412_0,Dhamtari,Chhattisgarh,Dhamtari,Chhatisgarh,Dhamtari,Chhattisgarh,Dhamtari,NA,Chhattisgarh,Dhamtari,81.80524578,20.56279112,328.6320371449558,291.29861370609245,259.0905088414247,384.03424345641076,not nodal
2214,3_22_413_0,3_22_413_0,Kanker,Chhattisgarh,Uttar Bastar Kanker,Chhatisgarh,Kanker,Chhattisgarh,Kanker,NA,Chhattisgarh,Uttar Bastar Kanker,81.11815452,20.1423642,336.4692032154056,236.8053716936244,269.9943474701664,309.0863261514307,not nodal
2215,3_22_414_0,3_22_414_0,Bastar,Chhattisgarh,Bastar,Chhatisgarh,Bastar,Chhattisgarh,Bastar,Narayanpur district split from Bastar.,Chhattisgarh,Bastar,81.76892167,19.42021142,232.06805595384034,332.99548986027963,164.98591858459358,378.23736174376523,not nodal
2301,3_23_418_0,3_23_418_0,Sheopur,Madhya Pradesh,Sheopur,Madhya Pradesh,Sheopur,Madhya Pradesh,Sheopur,NA,Madhya Pradesh,Sheopur,77.00331442,25.75203987,174.88138728197197,58.49947567871114,108.45743451254258,101.1529470262199,not nodal
2302,3_23_419_0,3_23_419_0,Morena,Madhya Pradesh,Morena,Madhya Pradesh,Morena,Madhya Pradesh,Morena,NA,Madhya Pradesh,Morena,77.86687545,26.40641958,88.32619312049255,12.492064230770334,158.65638500933304,53.05041333887126,not nodal
2304,3_23_421_0,3_23_421_0,Gwalior,Madhya Pradesh,Gwalior,Madhya Pradesh,Gwalior,Madhya Pradesh,Gwalior,NA,Madhya Pradesh,Gwalior,78.14648684,26.0328472,119.57140934523579,21.883569768965113,201.13632944710164,46.726679787913184,not nodal
2305,3_23_422_0,3_23_422_0,Datia,Madhya Pradesh,Datia,Madhya Pradesh,Datia,Madhya Pradesh,Datia,NA,Madhya Pradesh,Datia,78.57740643,25.78219169,114.03750393683072,40.072739542479255,209.73737341543196,20.461864561476943,not nodal
2308,3_23_424_0,3_23_424_0,Tikamgarh,Madhya Pradesh,Tikamgarh,Madhya Pradesh,Tikamgarh,Madhya Pradesh,Tikamgarh,NA,Madhya Pradesh,Tikamgarh,78.94615556,24.99271594,159.1559614579164,57.51462491902583,268.0980203259321,52.93299068419683,not nodal
2309,3_23_425_0,3_23_425_0,Chhatarpur,Madhya Pradesh,Chhatarpur,Madhya Pradesh,Chhatarpur,Madhya Pradesh,Chhatarpur,NA,Madhya Pradesh,Chhatarpur,79.66648933,24.80437162,154.30182303143576,128.80492035160538,250.1698055443253,106.75169517436179,not nodal
2310,3_23_426_0,3_23_426_0,Panna,Madhya Pradesh,Panna,Madhya Pradesh,Panna,Madhya Pradesh,Panna,NA,Madhya Pradesh,Panna,80.18403248,24.42730941,174.80779193166828,195.3152293976617,260.3198746671498,173.34644088572384,not nodal
2312,3_23_428_0,3_23_428_0,Damoh,Madhya Pradesh,Damoh,Madhya Pradesh,Damoh,Madhya Pradesh,Damoh,NA,Madhya Pradesh,Damoh,79.52968823,23.81360833,265.44502612048586,199.02818683145114,352.91682894754047,196.1988418998658,not nodal
2313,3_23_429_0,3_23_429_0,Satna,Madhya Pradesh,Satna,Madhya Pradesh,Satna,Madhya Pradesh,Satna,NA,Madhya Pradesh,Satna,80.82860802,24.53535575,131.75352317686458,247.97378640541456,216.95274137431372,218.30876975175346,not nodal
2315,3_23_431_0,3_23_431_0,Umaria,Madhya Pradesh,Umaria,Madhya Pradesh,Umaria,Madhya Pradesh,Umaria,NA,Madhya Pradesh,Umaria,80.96776944,23.5621446,221.2314083174463,316.7059562562783,303.27800176797535,297.98907052112304,not nodal
2316,3_23_460_0,3_23_460_0,Shahdol,Madhya Pradesh,Shahdol,Madhya Pradesh,Shahdol,Madhya Pradesh,Shahdol,Anuppur district split from Shahdol,Madhya Pradesh,Shahdol,81.47499396,23.63162727,200.87753118797914,353.6398056454061,270.2318130804081,330.2504669783045,not nodal
2317,3_23_462_0,3_23_462_0,Sidhi,Madhya Pradesh,Sidhi,Madhya Pradesh,Sidhi,Madhya Pradesh,Sidhi,Singrauli district split from Sidhi,Madhya Pradesh,Sidhi,81.83854145,24.22143266,130.12147389530296,356.02159577352325,194.8464420005598,325.0150063936812,not nodal
2320,3_23_434_0,3_23_434_0,Ratlam,Madhya Pradesh,Ratlam,Madhya Pradesh,Ratlam,Madhya Pradesh,Ratlam,NA,Madhya Pradesh,Ratlam,75.08569547,23.50253954,153.08027773240565,158.8867898087722,26.965004777847106,48.28231582158222,not nodal
2321,3_23_435_0,3_23_435_0,Ujjain,Madhya Pradesh,Ujjain,Madhya Pradesh,Ujjain,Madhya Pradesh,Ujjain,NA,Madhya Pradesh,Ujjain,75.65861686,23.32712026,214.6823017723507,194.21492449886995,88.75950911296441,89.94960570937027,not nodal
2322,3_23_436_0,3_23_436_0,Shajapur,Madhya Pradesh,Shajapur,Madhya Pradesh,Shajapur,Madhya Pradesh,Shajapur,NA,Madhya Pradesh,Shajapur,76.33520989,23.58339148,272.79743319907396,180.91069169079466,141.5599317240652,91.99276017879266,not nodal
2323,3_23_437_0,3_23_437_0,Dewas,Madhya Pradesh,Dewas,Madhya Pradesh,Dewas,Madhya Pradesh,Dewas,NA,Madhya Pradesh,Dewas,76.45745354,22.74651002,315.9182632664934,272.9173467507652,189.76849357328246,181.82111422045384,not nodal
2325,3_23_438_0,3_23_438_0,Dhar,Madhya Pradesh,Dhar,Madhya Pradesh,Dhar,Madhya Pradesh,Dhar,NA,Madhya Pradesh,Dhar,75.10826745,22.49419471,196.10035037170098,269.1923985388888,72.29592163018553,150.9869049750143,not nodal
2326,3_23_439_0,3_23_439_0,Indore,Madhya Pradesh,Indore,Madhya Pradesh,Indore,Madhya Pradesh,Indore,NA,Madhya Pradesh,Indore,75.78364821,22.71374478,257.6702520200026,263.05049359484224,127.17670773234228,157.1740322027853,not nodal
2327,3_23_440_0,3_23_440_0,West Nimar,Madhya Pradesh,Khargone (West Nimar),Madhya Pradesh,West Nimar,Madhya Pradesh,W. Nimar,NA,Madhya Pradesh,Khargone (West Nimar),75.7653569,21.90871858,266.6753891559432,349.0025012433901,160.29321173842197,237.7905761592741,not nodal
2328,3_23_441_0,3_23_441_0,Barwani,Madhya Pradesh,Barwani,Madhya Pradesh,Barwani,Madhya Pradesh,(Khargoan) Barwani,NA,Madhya Pradesh,Barwani,75.00184629,21.79968921,190.364600981954,340.3387317466117,91.83313031210011,216.52410447173204,not nodal
2329,3_23_466_0,3_23_466_0,East Nimar,Madhya Pradesh,Khandwa (East Nimar),Madhya Pradesh,East Nimar,Madhya Pradesh,E. Nimar,Burhanpur district split from Khandwa (East Nimar),Madhya Pradesh,Khandwa (East Nimar),76.56852721,21.93843027,348.22220183892597,273.06022187132703,235.75567117776072,264.6067741474086,not nodal
2330,3_23_442_0,3_23_442_0,Rajgarh,Madhya Pradesh,Rajgarh,Madhya Pradesh,Rajgarh,Madhya Pradesh,Rajgarh,NA,Madhya Pradesh,Rajgarh,76.73110457,23.8617774,307.5234699669487,153.213074017633,166.6203583857859,79.96051433900247,not nodal
2332,3_23_444_0,3_23_444_0,Bhopal,Madhya Pradesh,Bhopal,Madhya Pradesh,Bhopal,Madhya Pradesh,Bhopal,NA,Madhya Pradesh,Bhopal,77.39678996,23.47423117,381.2616426545726,193.31784204050695,246.38903467176013,146.328814405859,not nodal
2335,3_23_447_0,3_23_447_0,Betul,Madhya Pradesh,Betul,Madhya Pradesh,Betul,Madhya Pradesh,Betul,NA,Madhya Pradesh,Betul,77.86941458,21.88324593,482.36091448466084,148.26883874850282,362.1120044241783,202.55987206499609,not nodal
2336,3_23_448_0,3_23_448_0,Harda,Madhya Pradesh,Harda,Madhya Pradesh,Harda,Madhya Pradesh,Harda,NA,Madhya Pradesh,Harda,77.11670918,22.23352157,402.05790916763374,234.8452008971147,274.97673423978966,260.96108792480004,not nodal
2337,3_23_449_0,3_23_449_0,Hoshangabad,Madhya Pradesh,Hoshangabad,Madhya Pradesh,Hoshangabad,Madhya Pradesh,Hoshangabad,NA,Madhya Pradesh,Hoshangabad,77.9874581,22.5928503,440.8997856771208,195.22229740717242,341.48781944729666,259.8103991969201,not nodal
2338,3_23_450_0,3_23_450_0,Katni,Madhya Pradesh,Katni,Madhya Pradesh,Katni,Madhya Pradesh,Katni,NA,Madhya Pradesh,Katni,80.40438369,23.75805429,228.39338946943678,259.3155627477505,313.53670071221944,244.41343688713897,not nodal
2339,3_23_451_0,3_23_451_0,Jabalpur,Madhya Pradesh,Jabalpur,Madhya Pradesh,Jabalpur,Madhya Pradesh,Jabalpur,NA,Madhya Pradesh,Jabalpur,79.97141032,23.23436519,300.63171019452557,248.55454233658264,386.30142429620327,272.6210977000624,not nodal
2341,3_23_453_0,3_23_453_0,Dindori,Madhya Pradesh,Dindori,Madhya Pradesh,Dindori,Madhya Pradesh,Dindori,NA,Madhya Pradesh,Dindori,81.04999891,22.88899275,290.3891057761503,280.02619062921485,363.64636333459913,361.46347893732235,not nodal
2342,3_23_454_0,3_23_454_0,Mandla,Madhya Pradesh,Mandla,Madhya Pradesh,Mandla,Madhya Pradesh,Mandla,NA,Madhya Pradesh,Mandla,80.50439854,22.6416181,333.94976216061053,221.08308482486214,415.87636040897695,356.3996148501216,not nodal
2344,3_23_456_0,3_23_456_0,Seoni,Madhya Pradesh,Seoni,Madhya Pradesh,Seoni,Madhya Pradesh,Seoni,NA,Madhya Pradesh,Seoni,79.68688421,22.31913588,403.6509938046,143.5264022308262,489.3468870743648,294.85911345555394,not nodal
2401,3_24_468_0,3_24_468_0,Kachchh,Gujarat,Kachchh,Gujarat,Kachchh,Gujarat,Kachchh,NA,Gujarat,Kachchh,69.93399804,23.62723303,279.6592324731769,68.77453865114127,467.74245110906196,189.7531106762872,not nodal
2403,3_24_470_0,3_24_470_0,Patan,Gujarat,Patan,Gujarat,Patan,Gujarat,Patan,NA,Gujarat,Patan,71.76906876,23.77268559,115.33208219964885,10.931446418403498,298.746138142103,121.77756838993811,not nodal
2404,3_24_471_0,3_24_471_0,Mahesana,Gujarat,Mahesana,Gujarat,Mahesana,Gujarat,Mahesana,NA,Gujarat,Mahesana,72.47040548,23.61135338,43.231477235910866,62.91412442355823,225.59512965695188,74.7105207357969,not nodal
2406,3_24_473_0,3_24_473_0,Gandhinagar,Gujarat,Gandhinagar,Gujarat,Gandhinagar,Gujarat,Gandhinagar,NA,Gujarat,Gandhinagar,72.69472941,23.25153684,6.242344398437497,106.55934709322557,189.55242523344506,28.791835295232953,not nodal
2407,3_24_474_0,3_24_474_0,Ahmedabad,Gujarat,Ahmadabad,Gujarat,Ahmadabad,Gujarat,Ahmedabad,NA,Gujarat,Ahmadabad,72.19810101,22.71531056,42.029768171315965,118.6949237186573,215.08319121970604,3.1580760139344397,not nodal
2408,3_24_475_0,3_24_475_0,Surendranagar,Gujarat,Surendranagar,Gujarat,Surendranagar,Gujarat,Surendranagar,NA,Gujarat,Surendranagar,71.53618999,22.79926927,108.09973659714082,61.41773195489662,281.85214718323607,34.580597040371906,not nodal
2409,3_24_476_0,3_24_476_0,Rajkot,Gujarat,Rajkot,Gujarat,Rajkot,Gujarat,Rajkot,NA,Gujarat,Rajkot,70.77474171,22.26575582,196.73381627159236,3.4569894555251763,333.6820663951474,15.454378870762888,not nodal
2410,3_24_477_0,3_24_477_0,Jamnagar,Gujarat,Jamnagar,Gujarat,Jamnagar,Gujarat,Jamnagar,NA,Gujarat,Jamnagar,69.9183118,22.25463502,281.90302720095735,66.19135534878424,415.7783308911722,53.44101225582324,not nodal
2412,3_24_479_0,3_24_479_0,Junagadh,Gujarat,Junagadh,Gujarat,Junagadh,Gujarat,Junagadh,NA,Gujarat,Junagadh,70.56625003,21.19882146,247.38485170676208,60.117075407105716,311.51028084562546,81.40687538168972,not nodal
2413,3_24_480_0,3_24_480_0,Amreli,Gujarat,Amreli,Gujarat,Amreli,Gujarat,Amreli,NA,Gujarat,Amreli,71.24607449,21.42361222,177.1053640691511,73.5869821077856,254.5741730328785,89.7023094198847,not nodal
2414,3_24_481_0,3_24_481_0,Bhavnagar,Gujarat,Bhavnagar,Gujarat,Bhavnagar,Gujarat,Bhavnagar,NA,Gujarat,Bhavnagar,71.86137438,21.67496431,117.83503400623466,115.02722531267311,205.22459489020324,92.18998267065435,not nodal
2415,3_24_482_0,3_24_482_0,Anand,Gujarat,Anand,Gujarat,Anand,Gujarat,Anand,NA,Gujarat,Anand,72.75466815,22.43002323,27.890476822876007,171.82913823748567,150.10770473027898,56.172682785839676,not nodal
2416,3_24_483_0,3_24_483_0,Kheda,Gujarat,Kheda,Gujarat,Kheda,Gujarat,Kheda,NA,Gujarat,Kheda,73.017063,22.87603072,26.174257723976584,156.97102362235282,143.3743295213915,22.92445383005099,not nodal
2419,3_24_486_0,3_24_486_0,Vadodara,Gujarat,Vadodara,Gujarat,Vadodara,Gujarat,Vadodara,NA,Gujarat,Vadodara,73.53260508,22.23594101,33.52400777647778,244.10816937023455,67.49864968371381,109.52799997937858,not nodal
2420,3_24_487_0,3_24_487_0,Narmada,Gujarat,Narmada,Gujarat,Narmada,Gujarat,Narmada,NA,Gujarat,Narmada,73.64819701,21.73628787,60.62046789415416,275.41014743143035,35.53978507707838,164.70532495438357,not nodal
2421,3_24_488_0,3_24_488_0,Bharuch,Gujarat,Bharuch,Gujarat,Bharuch,Gujarat,Bharuch,NA,Gujarat,Bharuch,72.91074977,21.80127062,12.941171276291911,200.8245372986089,109.21803412212385,125.98437352473577,not nodal
2422,3_24_492_0,3_24_492_0,Surat,Gujarat,Surat,Gujarat,Surat,Gujarat,Surat,Tapi district split from Surat,Gujarat,Surat,73.07831753,21.26664334,9.9908203933199,243.16273293653887,70.95420738778515,186.9437203960072,not nodal
2501,3_25_494_0,3_25_494_0,Diu,Daman & Diu,Diu,Daman & Diu,Diu,Daman & Diu,Diu,NA,Daman & Diu,Diu,70.93369567,20.72030296,209.52817354358274,120.3135181183749,256.7338160837249,145.97431830209132,not nodal
2502,3_25_495_0,3_25_495_0,Daman,Daman & Diu,Daman,Daman & Diu,Daman,Daman & Diu,Daman,NA,Daman & Diu,Daman,72.85945146,20.41414705,6.8429924017980825,275.3231712926981,56.921152525137245,262.9262953615574,not nodal
2601,3_26_496_0,3_26_496_0,Dadra & Nagar Haveli,Dadra & Nagar Haveli,Dadra & Nagar Haveli,Dadra & Nagar Haveli,Dadra & Nagar Haveli,D & N Haveli,D & N  Haveli,NA,Dadra & Nagar Haveli,Dadra & Nagar Haveli,73.07666633,20.19588882,17.677473164861567,307.99818978778893,26.755697837085474,294.4982427392409,not nodal
2701,3_27_497_0,3_27_497_0,Nandurbar,Maharashtra,Nandurbar,Maharashtra,Nandurbar,Maharashtra,Nandurbar,NA,Maharashtra,Nandurbar,74.22440659,21.55055434,123.17782471279374,338.4729634199655,27.711038719009846,208.31956238079465,not nodal
2702,3_27_498_0,3_27_498_0,Dhule,Maharashtra,Dhule,Maharashtra,Dhule,Maharashtra,Dhule,NA,Maharashtra,Dhule,74.60293362,21.10927554,160.36350227483132,392.2068896202819,82.86938378906498,269.07309655142177,not nodal
2703,3_27_499_0,3_27_499_0,Jalgaon,Maharashtra,Jalgaon,Maharashtra,Jalgaon,Maharashtra,Jalgaon,NA,Maharashtra,Jalgaon,75.49108714,20.93474406,250.14562884291723,333.2318508974665,175.99511208934615,294.11395685462094,not nodal
2705,3_27_501_0,3_27_501_0,Akola,Maharashtra,Akola,Maharashtra,Akola,Maharashtra,Akola,NA,Maharashtra,Akola,77.05729878,20.74639796,412.94753486852136,174.32965794549892,334.98295121325003,136.7949212349434,not nodal
2706,3_27_502_0,3_27_502_0,Washim,Maharashtra,Washim,Maharashtra,Washim,Maharashtra,Washim,NA,Maharashtra,Washim,77.21494509,20.23140327,397.6516361695571,139.55333256475745,372.8781605226999,100.30111950560605,not nodal
2707,3_27_503_0,3_27_503_0,Amarawti,Maharashtra,Amravati,Maharashtra,Amaravati,Maharashtra,Amravati,NA,Maharashtra,Amravati,77.56846918,21.18973163,464.51968723771176,150.64214902058265,364.3600131836572,137.7179576206946,not nodal
2708,3_27_504_0,3_27_504_0,Wardha,Maharashtra,Wardha,Maharashtra,Wardha,Maharashtra,Wardha,NA,Maharashtra,Wardha,78.58527769,20.79772436,522.3907783918567,40.95991641865603,479.1217380412329,90.88020910958738,not nodal
2709,3_27_505_0,3_27_505_0,Nagpur,Maharashtra,Nagpur,Maharashtra,Nagpur,Maharashtra,Nagpur,NA,Maharashtra,Nagpur,79.08369436,21.17881854,537.3929347823442,2.1421926400333233,495.04466446635695,155.14487704285781,not nodal
2710,3_27_506_0,3_27_506_0,Bhandara,Maharashtra,Bhandara,Maharashtra,Bhandara,Maharashtra,Bhandara,NA,Maharashtra,Bhandara,79.75955675,21.11936904,499.65086552463714,70.82992499780018,444.0967904892038,202.46665207300242,not nodal
2711,3_27_507_0,3_27_507_0,Gondiya,Maharashtra,Gondiya,Maharashtra,Gondiya,Maharashtra,Gondiya,NA,Maharashtra,Gondiya,80.21107293,21.16035895,481.8980500446427,117.5480366403349,416.91454366137805,244.80683424929455,not nodal
2713,3_27_509_0,3_27_509_0,Chandrapur,Maharashtra,Chandrapur,Maharashtra,Chandrapur,Maharashtra,Chandrapur,NA,Maharashtra,Chandrapur,79.43966571,20.11939894,415.2281785715519,95.42506651193173,382.32789997394235,133.63601238590715,not nodal
2714,3_27_510_0,3_27_510_0,Yavatmal,Maharashtra,Yavatmal,Maharashtra,Yavatmal,Maharashtra,Yavatmal,NA,Maharashtra,Yavatmal,78.16186633,20.08422159,474.2888090596167,39.30958754043764,467.180133035645,0,not nodal
2715,3_27_511_0,3_27_511_0,Nanded,Maharashtra,Nanded,Maharashtra,Nanded,Maharashtra,Nanded,NA,Maharashtra,Nanded,77.61628927,19.1088467,395.8892431925044,75.12308458413835,408.4203613374363,58.42180167680842,not nodal
2716,3_27_512_0,3_27_512_0,Hingoli,Maharashtra,Hingoli,Maharashtra,Hingoli,Maharashtra,Hingoli,NA,Maharashtra,Hingoli,77.10006886,19.6414069,361.29763572665496,142.50367961823528,387.7870273045932,111.77098977510866,not nodal
2717,3_27_513_0,3_27_513_0,Parbhani,Maharashtra,Parbhani,Maharashtra,Parbhani,Maharashtra,Parbhani,NA,Maharashtra,Parbhani,76.69369838,19.26865943,308.83011269388174,170.10725049357836,341.1483723503155,155.14593573778342,not nodal
2718,3_27_514_0,3_27_514_0,Jalna,Maharashtra,Jalna,Maharashtra,Jalna,Maharashtra,Jalna,NA,Maharashtra,Jalna,75.98324436,19.80622478,261.8594665000574,259.115498362392,272.3360666125722,228.39554748474248,not nodal
2720,3_27_516_0,3_27_516_0,Nasik,Maharashtra,Nashik,Maharashtra,Nashik,Maharashtra,Nashik,NA,Maharashtra,Nashik,74.07156175,20.25775545,116.83487286826139,390.3300609935195,67.42215257267918,331.9277829182528,not nodal
2721,3_27_517_0,3_27_517_0,Thane,Maharashtra,Thane,Maharashtra,Thane,Maharashtra,Thane,NA,Maharashtra,Thane,73.14806986,19.6006223,23.77993660717653,356.54418251861193,4.89611156338328,357.6388511258904,not nodal
2723,3_27_519_0,3_27_519_0,Mumbai,Maharashtra,Mumbai,Maharashtra,Mumbai,Maharashtra,Mumbai,NA,Maharashtra,Mumbai,72.83871926,18.98700571,3.3718498841394675,386.4157889251338,0,405.78345013649255,nodal
2725,3_27_521_0,3_27_521_0,Pune,Maharashtra,Pune,Maharashtra,Pune,Maharashtra,Pune,NA,Maharashtra,Pune,74.06766971,18.57043418,21.636810088897278,436.59594265683864,74.1760649870058,433.47149218702265,not nodal
2726,3_27_522_0,3_27_522_0,Ahmadnagar,Maharashtra,Ahmadnagar,Maharashtra,Ahmadnagar,Maharashtra,Ahmadnagar,NA,Maharashtra,Ahmadnagar,74.67620965,19.20475438,110.45636985945086,375.30045296077054,167.7146799122534,367.19893621674174,not nodal
2727,3_27_523_0,3_27_523_0,Bid,Maharashtra,Bid,Maharashtra,Bid,Maharashtra,Bid,NA,Maharashtra,Bid,75.84095736,18.94603701,213.07389316771895,250.2885505501149,247.97621141851639,245.54090983082162,not nodal
2729,3_27_525_0,3_27_525_0,Osmanabad,Maharashtra,Osmanabad,Maharashtra,Osamanabad,Maharashtra,Osmanabad,NA,Maharashtra,Osmanabad,76.036715,18.18807263,211.61692238277652,233.60351663080434,214.05896647512017,226.85171334159963,not nodal
2730,3_27_526_0,3_27_526_0,Solapur,Maharashtra,Solapur,Maharashtra,Solapur,Maharashtra,Solapur,NA,Maharashtra,Solapur,75.48183535,17.79038847,148.50979961365348,297.4077925656896,140.73522046955443,286.6046918976664,not nodal
2731,3_27_527_0,3_27_527_0,Satara,Maharashtra,Satara,Maharashtra,Satara,Maharashtra,Satara,NA,Maharashtra,Satara,74.17399319,17.66453851,15.220267766437003,420.86361724098356,21.98581071411734,425.54803944289466,not nodal
2732,3_27_528_0,3_27_528_0,Ratnagiri,Maharashtra,Ratnagiri,Maharashtra,Ratnagiri,Maharashtra,Ratnagiri,NA,Maharashtra,Ratnagiri,73.45322905,17.27560774,70.64975183694192,485.27302692036335,65.31161349706255,503.450605857491,not nodal
2734,3_27_530_0,3_27_530_0,Kolhapur,Maharashtra,Kolhapur,Maharashtra,Kolhapur,Maharashtra,Kolhapur,NA,Maharashtra,Kolhapur,74.15831643,16.47014442,19.846935476420892,401.29438230142256,60.26046264520273,431.3641735727878,not nodal
2801,3_28_532_0,3_28_532_0,Adilabad,Andhra Pradesh,Adilabad,Andhra Pradesh,Adilabad,Andhra Pradesh,Adilabad,NA,Andhra Pradesh,Adilabad,78.9790301,19.25379776,350.5466034155098,55.3861084090666,341.7067090825119,85.4962025540505,not nodal
2802,3_28_533_0,3_28_533_0,Nizamabad,Andhra Pradesh,Nizamabad,Andhra Pradesh,Nizamabad,Andhra Pradesh,Nizamabad,NA,Andhra Pradesh,Nizamabad,78.14229411,18.52210845,342.78619030825075,10.405527557518369,338.7086218204948,3.3129813680304037,not nodal
2803,3_28_534_0,3_28_534_0,Karimnagar,Andhra Pradesh,Karimnagar,Andhra Pradesh,Karimnagar,Andhra Pradesh,Karimnagar,NA,Andhra Pradesh,Karimnagar,79.23338546,18.5487273,269.62506353184494,95.73734500331925,265.26750467419623,112.3409989625411,not nodal
2804,3_28_535_0,3_28_535_0,Medak,Andhra Pradesh,Medak,Andhra Pradesh,Medak,Andhra Pradesh,Medak,NA,Andhra Pradesh,Medak,78.21522451,17.88854289,286.45709095557874,27.173336096223462,280.9076176396903,3.9509496523432817,not nodal
2805,3_28_536_0,3_28_536_0,Hyderabad,Andhra Pradesh,Hyderabad,Andhra Pradesh,Hyderabad,Andhra Pradesh,Hyderabad,NA,Andhra Pradesh,Hyderabad,78.47302797,17.39840098,230.5655366425889,2.179864079163897,222.06678671839686,31.126297107938818,not nodal
2806,3_28_537_0,3_28_537_0,Rangareddi,Andhra Pradesh,Rangareddy,Andhra Pradesh,Rangareddi,Andhra Pradesh,Rangareddi,NA,Andhra Pradesh,Rangareddy,78.17594527,17.28956344,249.39335515161164,21.04568194447022,233.77312001218016,0.7030790498246803,not nodal
2807,3_28_538_0,3_28_538_0,Mahbubnagar,Andhra Pradesh,Mahbubnagar,Andhra Pradesh,Mahbubnagar,Andhra Pradesh,Mahbubnagar,NA,Andhra Pradesh,Mahbubnagar,78.15362154,16.4938307,214.47826458383858,21.253535703906948,175.34442049957772,3.7218509506960267,not nodal
2810,3_28_541_0,3_28_541_0,Khammam,Andhra Pradesh,Khammam,Andhra Pradesh,Khammam,Andhra Pradesh,Khammam,NA,Andhra Pradesh,Khammam,80.68117548,17.5928348,106.00262564667194,232.97919417200373,85.08021294139648,266.1928762207366,not nodal
2813,3_28_544_0,3_28_544_0,Visakhapatnam,Andhra Pradesh,Visakhapatnam,Andhra Pradesh,Visakhapatnam,Andhra Pradesh,Visakhapatnam,NA,Andhra Pradesh,Visakhapatnam,82.69643008,17.8889277,35.61960962427514,446.25673202970614,27.934668607169833,479.2147351449315,not nodal
2814,3_28_545_0,3_28_545_0,East Godavari,Andhra Pradesh,East Godavari,Andhra Pradesh,East Godavari,Andhra Pradesh,East Godavari,NA,Andhra Pradesh,East Godavari,82.0062363,17.19339465,5.08128754656719,374.5542253021847,39.884027194450226,407.47525452654975,not nodal
2815,3_28_546_0,3_28_546_0,West Godavari,Andhra Pradesh,West Godavari,Andhra Pradesh,West Godavari,Andhra Pradesh,West Godavari,NA,Andhra Pradesh,West Godavari,81.40271788,16.88999294,9.358859826927166,314.7834387155355,24.06240057139411,343.750006500088,not nodal
2816,3_28_547_0,3_28_547_0,Krishna,Andhra Pradesh,Krishna,Andhra Pradesh,Krishna,Andhra Pradesh,Krishna,NA,Andhra Pradesh,Krishna,80.7982166,16.55866391,2.7166972118949055,262.15201152745095,10.245907069262191,279.63963209124177,not nodal
2817,3_28_548_0,3_28_548_0,Guntur,Andhra Pradesh,Guntur,Andhra Pradesh,Guntur,Andhra Pradesh,Guntur,NA,Andhra Pradesh,Guntur,80.08160809,16.29359651,20.344242153608313,207.88802746893379,17.255605812194585,203.12665239497505,not nodal
2818,3_28_549_0,3_28_549_0,Prakasam,Andhra Pradesh,Prakasam,Andhra Pradesh,Prakasam,Andhra Pradesh,Prakasam,NA,Andhra Pradesh,Prakasam,79.51497739,15.61656491,53.65454753982756,157.72517490262268,0,142.3446031289907,not nodal
2819,3_28_550_0,3_28_550_0,Nellore,Andhra Pradesh,Sri Potti Sriramulu Nellore,Andhra Pradesh,Nellore,Andhra Pradesh,Nellore,NA,Andhra Pradesh,Sri Potti Sriramulu Nellore,79.74322349,14.41629311,22.825253536453197,226.108634143241,12.126579953011033,166.98026834908117,not nodal
2820,3_28_551_0,3_28_551_0,Cuddapah,Andhra Pradesh,Y.S.R.,Andhra Pradesh,Cuddapah,Andhra Pradesh,Cuddapah,NA,Andhra Pradesh,Y.S.R.,78.78210398,14.46663411,121.59456935342995,125.25917557566446,110.80092887729793,62.82002830327847,not nodal
2821,3_28_552_0,3_28_552_0,Kurnool,Andhra Pradesh,Kurnool,Andhra Pradesh,Kurnool,Andhra Pradesh,Kurnool,NA,Andhra Pradesh,Kurnool,77.99966321,15.5343502,216.38995964075787,9.849775438196612,162.7467135476419,21.094095198061677,not nodal
2822,3_28_553_0,3_28_553_0,Anantapur,Andhra Pradesh,Anantapur,Andhra Pradesh,Anantapur,Andhra Pradesh,Anantapur,NA,Andhra Pradesh,Anantapur,77.57157214,14.48608823,110.13226383989071,5.177800990354512,99.99080154180862,68.41869069639132,not nodal
2823,3_28_554_0,3_28_554_0,Chittoor,Andhra Pradesh,Chittoor,Andhra Pradesh,Chittoor,Andhra Pradesh,Chittoor,NA,Andhra Pradesh,Chittoor,78.99899093,13.46760592,60.10924838524083,134.5281674386581,50.23912192941815,85.94650537861956,not nodal
2901,3_29_555_0,3_29_555_0,Belgaum,Karnataka,Belgaum,Karnataka,Belgaum,Karnataka,Belgaum,NA,Karnataka,Belgaum,74.8248333,16.11958225,33.260794254977824,320.81841534287867,27.154456994038405,361.24709591533735,not nodal
2902,3_29_556_0,3_29_556_0,Bagalkot,Karnataka,Bagalkot,Karnataka,Bagalkot,Karnataka,Bagalkot,NA,Karnataka,Bagalkot,75.62440327,16.22052839,107.81823329414067,243.83335005417626,47.90665346403666,275.4127031132716,not nodal
2903,3_29_557_0,3_29_557_0,Bijapur,Karnataka,Bijapur,Karnataka,Bijapur,Karnataka,Bijapur,NA,Karnataka,Bijapur,75.95282273,16.79378459,166.48251631741326,214.0312119341623,114.21208417486518,238.99633418687083,not nodal
2905,3_29_558_0,3_29_558_0,Bidar,Karnataka,Bidar,Karnataka,Bidar,Karnataka,Bidar,NA,Karnataka,Bidar,77.22421975,17.95155134,329.6003406585025,119.72449578022074,298.9766715528353,101.48176797193105,not nodal
2906,3_29_559_0,3_29_559_0,Raichur,Karnataka,Raichur,Karnataka,Raichur,Karnataka,Raichur,NA,Karnataka,Raichur,76.89112473,16.08969838,205.82093267556493,108.02583479118103,147.56424666413716,139.81159284425092,not nodal
2907,3_29_560_0,3_29_560_0,Koppal,Karnataka,Koppal,Karnataka,Koppal,Karnataka,Koppal,NA,Karnataka,Koppal,76.22013734,15.56101354,118.86421694063512,159.19921124571783,54.838823174815495,212.8550363295963,not nodal
2908,3_29_561_0,3_29_561_0,Gadag,Karnataka,Gadag,Karnataka,Gadag,Karnataka,Gadag,NA,Karnataka,Gadag,75.66535145,15.43298348,57.695790480258204,212.5369687589628,1.3640501942807945,272.80841946072627,not nodal
2909,3_29_562_0,3_29_562_0,Dharwad,Karnataka,Dharwad,Karnataka,Dharwad,Karnataka,Dharwad,NA,Karnataka,Dharwad,75.15110247,15.39087489,4.790048938727678,265.52525397550727,48.339257731217515,328.2113728179574,not nodal
2910,3_29_563_0,3_29_563_0,Uttar Kannad,Karnataka,Uttara Kannada,Karnataka,Uttara Kannada,Karnataka,Uttara Kannada,NA,Karnataka,Uttara Kannada,74.61914817,14.7922291,64.6574968807463,318.93002769720164,134.4548700269637,387.04927812937393,not nodal
2911,3_29_564_0,3_29_564_0,Haveri,Karnataka,Haveri,Karnataka,Haveri,Karnataka,Haveri,NA,Karnataka,Haveri,75.41645905,14.74207274,2.2435481008103126,233.56143819856868,69.17045240773966,301.1731794047869,not nodal
2912,3_29_565_0,3_29_565_0,Bellary,Karnataka,Bellary,Karnataka,Bellary,Karnataka,Bellary,NA,Karnataka,Bellary,76.53509238,15.11146091,91.10485430452103,113.78425553925801,51.95593875949676,179.70238434200954,not nodal
2913,3_29_566_0,3_29_566_0,Chitradurga,Karnataka,Chitradurga,Karnataka,Chitradurga,Karnataka,Chitradurga,NA,Karnataka,Chitradurga,76.51568391,14.16796869,3.521206919617041,115.13676511194862,12.631047508292573,183.33652670978512,not nodal
2914,3_29_567_0,3_29_567_0,Davanagere,Karnataka,Davanagere,Karnataka,Davanagere,Karnataka,Davanagere,NA,Karnataka,Davanagere,75.95477275,14.41016714,2.27023971965776,178.3725362270258,44.978509113414454,243.6800827515369,not nodal
2915,3_29_568_0,3_29_568_0,Shimoga,Karnataka,Shimoga,Karnataka,Shimoga,Karnataka,Shimoga,NA,Karnataka,Shimoga,75.22093435,14.04347599,76.0764401454169,254.91368716377966,133.06226007860568,323.9014391595932,not nodal
2916,3_29_569_0,3_29_569_0,Udupi,Karnataka,Udupi,Karnataka,Udupi,Karnataka,Udupi,NA,Karnataka,Udupi,74.87180925,13.49924468,147.40783923338017,296.9889937407411,199.97978152032076,363.02802185525167,not nodal
2917,3_29_570_0,3_29_570_0,Chikmagalur,Karnataka,Chikmagalur,Karnataka,Chikmagalur,Karnataka,Chikmagalur,NA,Karnataka,Chikmagalur,75.69040616,13.45459026,110.13560157094086,208.7764248879126,131.96708643000966,274.20960838609705,not nodal
2918,3_29_571_0,3_29_571_0,Tumkur,Karnataka,Tumkur,Karnataka,Tumkur,Karnataka,Tumkur,NA,Karnataka,Tumkur,76.94653331,13.51804445,4.324534697058417,82.76959168336492,18.537408765989746,137.486552181269,not nodal
2919,3_29_581_0,3_29_581_0,Kolar,Karnataka,Kolar,Karnataka,Kolar,Karnataka,Kolar,Chikkaballapur district split from Kolar,Karnataka,Kolar,78.21467546,13.13240689,56.805696640730886,56.52269009448288,17.021868124626696,0.2771862286686881,not nodal
2920,3_29_572_0,3_29_572_0,Bangalore,Karnataka,Bangalore,Karnataka,Bangalore,Karnataka,Bangalore,NA,Karnataka,Bangalore,77.59276938,12.94906025,0.22096847988947604,0.22096828431470836,0,67.7366372579721,nodal
2921,3_29_583_0,3_29_583_0,Bangalore Rural,Karnataka,Bangalore Rural,Karnataka,Bangalore (Rural),Karnataka,Bangalore (Rural),Ramanagara district split from Bangalore Rural,Karnataka,Bangalore Rural,77.57502296,13.22380943,21.713803711486015,8.152856513831724,16.66858137934154,69.38587447617196,nodal
2922,3_29_573_0,3_29_573_0,Mandya,Karnataka,Mandya,Karnataka,Mandya,Karnataka,Mandya,NA,Karnataka,Mandya,76.79703112,12.61284881,80.3588371613084,93.7869830937467,91.87535753815483,155.02041289109027,not nodal
2924,3_29_575_0,3_29_575_0,Dakshin Kannada,Karnataka,Dakshina Kannada,Karnataka,Dakshina Kannada,Karnataka,Dakshina Kannada,NA,Karnataka,Dakshina Kannada,75.24938724,12.8529795,189.86216815633315,253.34711291063797,210.7464555732668,319.9278020631222,not nodal
2925,3_29_576_0,3_29_576_0,Kodagu,Karnataka,Kodagu,Karnataka,Kodagu,Karnataka,Kodagu,NA,Karnataka,Kodagu,75.80077609,12.32691804,180.8894702135659,199.47408144018223,198.02653642749053,236.12350628163927,not nodal
2926,3_29_577_0,3_29_577_0,Mysore,Karnataka,Mysore,Karnataka,Mysore,Karnataka,Mysore,NA,Karnataka,Mysore,76.44183563,12.20893412,139.62841408485053,147.04049998348646,149.74785622157938,177.97867052519885,not nodal
2927,3_29_578_0,3_29_578_0,Chamarajanagar,Karnataka,Chamarajanagar,Karnataka,Chamarajanagar,Karnataka,Chamarajanagar,NA,Karnataka,Chamarajanagar,77.10026487,11.95893016,113.18981354403859,87.24651342380294,122.53392851543546,107.80033666483561,not nodal
3001,3_30_585_0,3_30_585_0,North Goa,Goa,North Goa,Goa,North Goa,Goa,North Goa,NA,Goa,North Goa,73.97853977,15.55279045,65.7042871420218,392.56375006739245,137.8755708193714,453.6379381371218,not nodal
3002,3_30_586_0,3_30_586_0,South Goa,Goa,South Goa,Goa,South Goa,Goa,South Goa,NA,Goa,South Goa,74.11831663,15.1984085,82.34342927355019,373.1913302260716,149.96239911876978,439.7643744223931,not nodal
3202,3_32_589_0,3_32_589_0,Kannur,Kerala,Kannur,Kerala,Kannur,Kerala,Kannur,NA,Kerala,Kannur,75.52313469,12.00126561,227.34574523694562,195.84389213040936,244.14234776251342,231.1620653129515,not nodal
3204,3_32_591_0,3_32_591_0,Kozhikode,Kerala,Kozhikode,Kerala,Kozhikode,Kerala,Kozhikode,NA,Kerala,Kozhikode,75.83342882,11.48533176,243.93738317831998,133.80718673772628,251.36949052071975,166.36225753337425,not nodal
3205,3_32_592_0,3_32_592_0,Malappuram,Kerala,Malappuram,Kerala,Malappuram,Kerala,Malappuram,NA,Kerala,Malappuram,76.15270986,11.13199195,249.64778010135586,84.17207043633196,255.9155950124572,113.8327215783171,not nodal
3206,3_32_593_0,3_32_593_0,Palakkad,Kerala,Palakkad,Kerala,Palakkad,Kerala,Palakkad,NA,Kerala,Palakkad,76.55628615,10.7956684,252.621656321539,32.84357568071912,264.9727800572525,56.14626953753766,not nodal
3207,3_32_594_0,3_32_594_0,Thrissur,Kerala,Thrissur,Kerala,Thrissur,Kerala,Thrissur,NA,Kerala,Thrissur,76.31349594,10.47291376,297.2167862885887,70.91321285308551,308.901857633858,48.82164076319948,not nodal
3208,3_32_595_0,3_32_595_0,Ernakulam,Kerala,Ernakulam,Kerala,Ernakulam,Kerala,Ernakulam,NA,Kerala,Ernakulam,76.5462145,10.08466971,322.52416270253156,88.82699636222043,338.6766692662008,0,nodal
3209,3_32_596_0,3_32_596_0,Idukki,Kerala,Idukki,Kerala,Idukki,Kerala,Idukki,NA,Kerala,Idukki,77.05690735,9.83986546,324.2864373592887,101.98443332982406,351.01767371554564,58.434012784317005,not nodal
3210,3_32_597_0,3_32_597_0,Kottayam,Kerala,Kottayam,Kerala,Kottayam,Kerala,Kottayam,NA,Kerala,Kottayam,76.65073115,9.63812108,363.7508898780489,133.72772761301783,382.64530931094794,51.01408484496862,not nodal
3211,3_32_598_0,3_32_598_0,Alappuzha,Kerala,Alappuzha,Kerala,Alappuzha,Kerala,Alappuzha,NA,Kerala,Alappuzha,76.44822881,9.42688296,393.8922322385832,154.96809371391024,411.52008083893605,74.00936464387647,not nodal
3212,3_32_599_0,3_32_599_0,Pathanamthitta,Kerala,Pathanamthitta,Kerala,Pathanamthitta,Kerala,Pathanamthitta,NA,Kerala,Pathanamthitta,76.92413145,9.28487729,386.9929239425831,100.40013865634374,414.37966417069146,73.10549873059082,not nodal
3213,3_32_600_0,3_32_600_0,Kollam,Kerala,Kollam,Kerala,Kollam,Kerala,Kollam,NA,Kerala,Kollam,76.87209018,8.9629581,422.5119655818155,93.69913949760856,450.6639146927659,69.96751076775547,not nodal
3214,3_32_601_0,3_32_601_0,Thiruvananthapuram,Kerala,Thiruvananthapuram,Kerala,Thiruvanantha- puram,Kerala,Thiruvanantha- puram,NA,Kerala,Thiruvananthapuram,77.01245402,8.61008527,454.8244119863683,71.72175999552363,487.16132537108746,45.35930085770998,not nodal
3301,3_33_602_0,3_33_602_0,Thiruvallur,Tamil Nadu,Thiruvallur,Tamil Nadu,Tiruvallur,Tamil Nadu,Thiruvallur,NA,Tamil Nadu,Thiruvallur,79.93928663,13.23527194,21.39638359086232,203.16778519743266,20.25113397695601,188.30254395063773,nodal
3302,3_33_603_0,3_33_603_0,Chennai,Tamil Nadu,Chennai,Tamil Nadu,Chennai,Tamil Nadu,Chennai,NA,Tamil Nadu,Chennai,80.24263464,13.06382108,0.9648451238555802,228.1310806800865,0,221.36364768165836,nodal
3303,3_33_604_0,3_33_604_0,Kancheepuram,Tamil Nadu,Kancheepuram,Tamil Nadu,Kanchipuram,Tamil Nadu,Kancheepuram,NA,Tamil Nadu,Kancheepuram,79.94132047,12.67956767,26.838323002205687,188.27660047889987,41.18128214398712,188.53206656697853,not nodal
3304,3_33_605_0,3_33_605_0,Vellore,Tamil Nadu,Vellore,Tamil Nadu,Vellore,Tamil Nadu,Vellore,NA,Tamil Nadu,Vellore,79.00637348,12.81242774,8.73645929054818,91.7332747056421,22.23869637341497,86.48423845156002,not nodal
3305,3_33_630_0,3_33_630_0,Dharampuri,Tamil Nadu,Dharmapuri,Tamil Nadu,Dharmapuri,Tamil Nadu,Dharmapuri,Krishnagiri district split from Dharmapuri,Tamil Nadu,Dharmapuri,78.19239944,12.101900090000001,46.26610903906627,3.7485924897901253,97.15124747923792,2.9465689004945124,not nodal
3306,3_33_606_0,3_33_606_0,Tiruvannamalai,Tamil Nadu,Tiruvannamalai,Tamil Nadu,Tiruvannamalai,Tamil Nadu,Tiruvanamalai,NA,Tamil Nadu,Tiruvannamalai,79.16655663,12.43145722,53.299789345558274,103.77841783469268,65.13512140338572,103.83908863525711,not nodal
3309,3_33_609_0,3_33_609_0,Namakkal,Tamil Nadu,Namakkal,Tamil Nadu,Namakkal,Tamil Nadu,Namakkal,NA,Tamil Nadu,Namakkal,78.13453717,11.31691244,133.86566856521867,13.094839564736292,184.22852915524297,0.5844676189623033,not nodal
3310,3_33_610_0,3_33_632_0,Erode,Tamil Nadu,Erode,Tamil Nadu,Erode,Tamil Nadu,Erode,Tiruppur district formed from parts of Coimbatore and Erode,Tamil Nadu,Erode,77.41198725,11.51775734,138.7310296008222,30.55526441047368,160.54111393470063,48.671518247798744,not nodal
3312,3_33_632_0,3_33_632_0,Coimbatore,Tamil Nadu,Coimbatore,Tamil Nadu,Coimbatore,Tamil Nadu,Coimbatore,Tiruppur district formed from parts of Coimbatore and Erode,Tamil Nadu,Coimbatore,76.97586649,10.87844746,222.57954179107244,3.7081029250350728,240.0927528196181,30.66963824081222,not nodal
3313,3_33_612_0,3_33_612_0,Dindigul,Tamil Nadu,Dindigul,Tamil Nadu,Dindigul,Tamil Nadu,Dindigul,NA,Tamil Nadu,Dindigul,77.81783993,10.39108764,240.82091014959718,50.66327929631799,285.6052918443054,7.738384655035807,not nodal
3314,3_33_613_0,3_33_613_0,Karur,Tamil Nadu,Karur,Tamil Nadu,Karur,Tamil Nadu,Karur,NA,Tamil Nadu,Karur,78.13516587,10.84305185,186.48513807187493,11.674530788403532,236.94473312007543,13.699383923235816,not nodal
3315,3_33_614_0,3_33_614_0,Tiruchchirappalli,Tamil Nadu,Tiruchirappalli,Tamil Nadu,Tiruchirappalli,Tamil Nadu,Tiruchirappalli,NA,Tamil Nadu,Tiruchirappalli,78.57117624,10.89457399,183.65499385594754,51.832024901539,233.26242971103028,58.69101520323545,not nodal
3316,3_33_615_0,3_33_615_0,Perambalur,Tamil Nadu,Perambalur,Tamil Nadu,Perambalur,Tamil Nadu,Perambalur,NA,Tamil Nadu,Perambalur,78.89277742,11.27443425,149.61793235791345,82.66818244654522,192.42111144626548,82.06490164044155,not nodal
3317,3_33_616_0,3_33_616_0,Ariyalur,Tamil Nadu,Ariyalur,Tamil Nadu,Ariyalur,Tamil Nadu,Ariyalur,NA,Tamil Nadu,Ariyalur,79.24103113,11.15982097,176.119422591096,120.37352932871376,206.69107351209342,122.07662532519697,not nodal
3323,3_33_622_0,3_33_622_0,Sivaganga,Tamil Nadu,Sivaganga,Tamil Nadu,Sivaganga,Tamil Nadu,Sivaganga,NA,Tamil Nadu,Sivaganga,78.59501622,9.91715839,291.6733902767477,50.2973967248854,342.1329976991076,88.33651214848797,not nodal
3324,3_33_623_0,3_33_623_0,Madurai,Tamil Nadu,Madurai,Tamil Nadu,Madurai,Tamil Nadu,Madurai,NA,Tamil Nadu,Madurai,78.00143042,9.92303356,289.70824848547136,5.815680526206698,338.5987784526841,24.727202963680767,not nodal
3325,3_33_624_0,3_33_624_0,Theni,Tamil Nadu,Theni,Tamil Nadu,Theni,Tamil Nadu,Theni,NA,Tamil Nadu,Theni,77.43971233,9.89027505,304.84351055316137,60.768154436529045,340.91162870255744,34.42843017382465,not nodal
3327,3_33_626_0,3_33_626_0,Ramanathapuram,Tamil Nadu,Ramanathapuram,Tamil Nadu,Ramanathapuram,Tamil Nadu,Ramanathapuram,NA,Tamil Nadu,Ramanathapuram,78.68413367,9.4354696,346.11013413931136,81.45282536427759,396.1373647605615,111.2032468309783,not nodal
3328,3_33_627_0,3_33_627_0,Thoothukkudi,Tamil Nadu,Thoothukkudi,Tamil Nadu,Thoothukudi,Tamil Nadu,Toothukudi,NA,Tamil Nadu,Thoothukkudi,77.9989153,8.90109316,403.17277454925835,23.231112121351686,452.22687136470984,52.54099337134698,not nodal
3329,3_33_628_0,3_33_628_0,Tirunelveli,Tamil Nadu,Tirunelveli,Tamil Nadu,Tirunelveli,Tamil Nadu,Tirunelveli,NA,Tamil Nadu,Tirunelveli,77.53628013,8.79027999,421.66631287247395,18.166721727638638,462.9944679931096,5.936078443840126,not nodal
3330,3_33_629_0,3_33_629_0,Kanniyakumari,Tamil Nadu,Kanniyakumari,Tamil Nadu,Kanniyakumari,Tamil Nadu,Kanniyakumari,NA,Tamil Nadu,Kanniyakumari,77.35794065,8.30630435,478.2925737582965,24.44337574766414,517.4670576084761,0,nodal
3402,3_34_635_0,3_34_635_0,Pondicherry,Puducherry,Puducherry,Pondicherry,Pondicherry,Puducherry,Pondicherry,NA,Puducherry,Puducherry,79.7340274,11.91037293,106.60891256190584,171.0848160564584,125.43168324186361,165.80992180487377,not nodal
4902,3_9_172_0,3_9_172_0,Fatehpur,Uttar Pradesh,Fatehpur,Uttar Pradesh,Fatehpur,Uttar Pradesh,Fatehpur,NA,Uttar Pradesh,Fatehpur,80.8073548,25.8757328,3.5443140137530995,230.14422401684755,89.29643905745947,190.4396945614637,not nodal
